{
    "features": [
        {
            "geometry": {
        "coordinates": [
          [
            [
              148.262030903,
              -29.972447944
            ],
            [
              148.43457275,
              -29.972447944
            ],
            [
              148.43457275,
              -29.84047776
            ],
            [
              148.505619392,
              -29.708332976
            ],
            [
              148.728908841,
              -29.52303785
            ],
            [
              148.739058361,
              -29.284301887
            ],
            [
              148.475170831,
              -28.938474617
            ],
            [
              148.125012378,
              -28.831832853
            ],
            [
              147.932171491,
              -28.831832853
            ],
            [
              147.389172151,
              -28.965117938
            ],
            [
              147.1406644,
              -29.000423369
            ],
            [
              147.033934031,
              -29.088946425
            ],
            [
              146.938150366,
              -29.143935962
            ],
            [
              146.960043775,
              -29.225170956
            ],
            [
              146.946155004,
              -29.322144339
            ],
            [
              146.984587628,
              -29.398824018
            ],
            [
              147.012040622,
              -29.42082554
            ],
            [
              147.064037468,
              -29.654163205
            ],
            [
              147.124244343,
              -29.789631904
            ],
            [
              147.241921417,
              -29.875096769
            ],
            [
              147.302128293,
              -29.901196445
            ],
            [
              147.371838469,
              -29.940729905
            ],
            [
              147.547997845,
              -30.017604971
            ],
            [
              147.840601363,
              -30.009399372
            ],
            [
              147.840601363,
              -30.009399372
            ],
            [
              148.262030903,
              -29.972447944
            ]
          ]
        ],
                "type": "Polygon"
            },
            "properties": {
                "beginTime": 1800,
                "endTime": 9146,
                "id": 0
            },
            "type": "Feature"
        }
    ],
    "name": "kamilaroi",
    "type": "Feature"
}
