{
  "type": "FeatureCollection",
  "name": "mongolian",
  "features": [
    {
      "type": "Feature",
      "properties": {
        "layerId": 1,
        "name": "1600 s/d now",
        "beginTime": 1600,
        "endTime": 9146
      },
      "geometry": {
        "type": "Polygon",
        "coordinates": [
          [
            [
              97.33436463147177,
              42.86257675712986
            ],
            [
              97.73349315543186,
              41.904454487063845
            ],
            [
              97.68360208993693,
              41.532056204554465
            ],
            [
              98.33218594137202,
              40.66736322608895
            ],
            [
              98.83109659632214,
              40.81856201314122
            ],
            [
              100.02848216820246,
              40.93173546626571
            ],
            [
              100.2875056030029,
              40.66582266801612
            ],
            [
              100.15527119485807,
              40.52525086185028
            ],
            [
              100.18171807648696,
              40.34408159635157
            ],
            [
              99.90402581938287,
              40.15231808540173
            ],
            [
              99.52054603576164,
              39.909314437877725
            ],
            [
              100.19494151730152,
              39.67562414927153
            ],
            [
              100.47263377440561,
              39.441140546834845
            ],
            [
              100.88256043965453,
              39.410497307510894
            ],
            [
              100.85812501512669,
              39.14177585731488
            ],
            [
              100.81481491861916,
              39.05774897967527
            ],
            [
              100.96640025639613,
              38.99606563788021
            ],
            [
              101.17573238951496,
              38.99606563788021
            ],
            [
              101.34897277554637,
              38.80506791277273
            ],
            [
              101.61605170400867,
              38.67557241118277
            ],
            [
              102.0307428430537,
              38.88850488955086
            ],
            [
              101.86995767105316,
              39.014209826525956
            ],
            [
              102.41170611686391,
              39.29427470313158
            ],
            [
              102.9835516985529,
              39.10768862601225
            ],
            [
              103.31462019321498,
              39.34084376151526
            ],
            [
              104.09714572605264,
              39.48036486810051
            ],
            [
              104.26267997338374,
              39.13103898342405
            ],
            [
              103.90151434284326,
              38.639058221252924
            ],
            [
              103.35976589703262,
              38.02522946503919
            ],
            [
              104.19108477758277,
              37.48243140618146
            ],
            [
              104.91971248013641,
              37.6417631976673
            ],
            [
              105.82421583503049,
              37.95940328639064
            ],
            [
              105.799090741839,
              38.767103642675124
            ],
            [
              106.70359409673307,
              39.46885101340851
            ],
            [
              107.01186786734735,
              38.96418655791882
            ],
            [
              106.55159618535936,
              38.31707998160559
            ],
            [
              108.53076441790768,
              37.66414600423241
            ],
            [
              108.94500893169686,
              38.10008124627578
            ],
            [
              110.09568813666681,
              39.4634436651543
            ],
            [
              111.33842167803436,
              39.56996510115522
            ],
            [
              112.44307371480778,
              40.31103348663174
            ],
            [
              113.54772575157892,
              40.521291409808725
            ],
            [
              114.00799743356691,
              41.25201213868101
            ],
            [
              114.74443212474768,
              42.31591520838052
            ],
            [
              115.25073097493441,
              41.769008373204144
            ],
            [
              116.40141017990436,
              42.1113768562667
            ],
            [
              117.36798071207915,
              42.689180895483645
            ],
            [
              118.47263274885029,
              41.94042238986174
            ],
            [
              118.42660558065148,
              41.35574161778919
            ],
            [
              119.07098593543463,
              41.28660696497991
            ],
            [
              119.39317611282621,
              42.31591520838052
            ],
            [
              120.03755646761107,
              41.769008373204315
            ],
            [
              122.24686054115341,
              42.8243611832562
            ],
            [
              123.7197299235172,
              43.19458585890226
            ],
            [
              123.44356691432438,
              43.59592110353182
            ],
            [
              122.89124089593889,
              44.456357092226995
            ],
            [
              122.20083337295455,
              44.39061319989375
            ],
            [
              121.84283303472051,
              46.02296909719564
            ],
            [
              122.69633863331183,
              46.08220219589728
            ],
            [
              122.69633863331183,
              46.90479804761338
            ],
            [
              122.52563751359355,
              47.48475385249415
            ],
            [
              124.23264871077612,
              48.51272328059815
            ],
            [
              125.42755654880608,
              50.45312970881059
            ],
            [
              125.2568554290857,
              51.474415803297774
            ],
            [
              122.61098807345269,
              51.58061551709653
            ],
            [
              122.52563751359355,
              52.52529720445801
            ],
            [
              121.58678135514316,
              52.83576262440633
            ],
            [
              121.24537911570667,
              53.24629006421546
            ],
            [
              120.30652295725622,
              52.73251930981937
            ],
            [
              119.19696567908761,
              50.61587937612103
            ],
            [
              117.57530504176412,
              49.74138149690231
            ],
            [
              116.63644888331373,
              49.79650699060261
            ],
            [
              114.50268488683338,
              50.50744199021668
            ],
            [
              112.53962201007346,
              49.79650699060261
            ],
            [
              110.74726025303175,
              49.18667468488729
            ],
            [
              107.84534121782139,
              49.63094238208066
            ],
            [
              106.906485059371,
              50.398755004482496
            ],
            [
              104.26061770373587,
              50.61587937612103
            ],
            [
              102.89500874598986,
              50.398755004482496
            ],
            [
              101.9561525875394,
              51.367968271424814
            ],
            [
              100.24914139035684,
              51.89772989379355
            ],
            [
              98.62748075303341,
              52.1079043682808
            ],
            [
              97.85932571430129,
              51.42122302781493
            ],
            [
              97.94467627416037,
              50.289818236392705
            ],
            [
              97.00582011570782,
              50.07119463901108
            ],
            [
              94.01855052063831,
              50.07119463901108
            ],
            [
              92.9943438023289,
              50.83200609432208
            ],
            [
              91.79943596430104,
              50.67000452704144
            ],
            [
              88.7268158093724,
              49.6861933007483
            ],
            [
              87.53190797134255,
              49.07497919551221
            ],
            [
              88.89751692909073,
              48.229230315721566
            ],
            [
              90.26312588683675,
              47.542400933269676
            ],
            [
              90.77522924599157,
              46.37741490853011
            ],
            [
              90.77522924599157,
              45.24715613798048
            ],
            [
              92.65294156289235,
              45.24715613798048
            ],
            [
              94.61600443965227,
              44.58230848850792
            ],
            [
              95.55486059810266,
              43.66330436249194
            ],
            [
              96.40836619669398,
              42.792676921016664
            ],
            [
              96.40836619669398,
              42.792676921016664
            ],
            [
              97.33436463147177,
              42.86257675712986
            ]
          ]
        ]
      },
      "id": 1
    },
    {
      "type": "Feature",
      "properties": {
        "layerId": 2,
        "name": "-250 s/d 200",
        "beginTime": -250,
        "endTime": 200
      },
      "geometry": {
        "type": "Polygon",
        "coordinates": [
          [
            [
              116.26658022648786,
              40.84850101674607
            ],
            [
              116.88888379948156,
              40.37609400760272
            ],
            [
              118.28906683871742,
              40.31680841987614
            ],
            [
              120.15597755769852,
              41.37596139922394
            ],
            [
              121.71173649018277,
              42.18801853754428
            ],
            [
              123.65643515579006,
              42.87587122314176
            ],
            [
              124.51210256865642,
              43.33022790860582
            ],
            [
              124.82325435515327,
              44.39579915786223
            ],
            [
              123.03413158279443,
              45.27834238360995
            ],
            [
              121.78952443680703,
              46.255047683991535
            ],
            [
              119.84482577120167,
              47.74040863154869
            ],
            [
              119.22252219820797,
              48.57067402003901
            ],
            [
              117.97791505222057,
              49.387527147972264
            ],
            [
              116.65551995960891,
              50.29052184048595
            ],
            [
              112.98454403173855,
              52.40731925709849
            ],
            [
              108.30696544046884,
              53.78292311958137
            ],
            [
              101.33832794735031,
              54.06398960962349
            ],
            [
              91.77556513809708,
              54.47993742959093
            ],
            [
              82.50928554930056,
              54.95568519054939
            ],
            [
              76.04121923945712,
              54.06398960962349
            ],
            [
              73.368317187303,
              50.746450162789216
            ],
            [
              72.50917009910009,
              46.71981638262619
            ],
            [
              74.51384663821568,
              43.06992619373031
            ],
            [
              83.80294687851045,
              40.496397546738905
            ],
            [
              93.20304922463276,
              39.17311428613485
            ],
            [
              100.7566155680932,
              38.612060375429195
            ],
            [
              106.11082604970528,
              38.411076019450775
            ],
            [
              112.41819983670126,
              40.18589575203018
            ],
            [
              114.83366016913135,
              41.65424680484378
            ],
            [
              114.83366016913135,
              41.65424680484378
            ],
            [
              116.26658022648786,
              40.84850101674607
            ]
          ]
        ]
      },
      "id": 2
    },
    {
      "type": "Feature",
      "properties": {
        "layerId": 3,
        "name": "200 s/d 1200",
        "beginTime": 200,
        "endTime": 1200
      },
      "geometry": {
        "type": "Polygon",
        "coordinates": [
          [
            [
              121.80649616375712,
              40.9743454592641
            ],
            [
              124.32359484040819,
              42.18219577048714
            ],
            [
              130.39111490427035,
              45.87469301649412
            ],
            [
              130.39111490427035,
              49.83898788065781
            ],
            [
              128.94322157574766,
              52.19144995811172
            ],
            [
              125.20283047706403,
              54.14396352840578
            ],
            [
              120.135203827233,
              53.931394152232116
            ],
            [
              116.03283939641716,
              53.646274984444915
            ],
            [
              109.99995052757112,
              52.77924883651238
            ],
            [
              105.89758609675675,
              51.745434550549504
            ],
            [
              103.12245721708672,
              51.595775268959414
            ],
            [
              101.07127500167951,
              52.633035164599136
            ],
            [
              96.00364835184854,
              53.070208204681904
            ],
            [
              91.65996836628045,
              53.214955310510334
            ],
            [
              84.82513514693045,
              52.92198764705046
            ],
            [
              77.71512057759014,
              52.14107580052891
            ],
            [
              72.48135985293658,
              52.01970098596237
            ],
            [
              67.14884892593099,
              51.775960328529834
            ],
            [
              50.38580805829983,
              50.72966741921428
            ],
            [
              46.35722062811402,
              49.318036845950104
            ],
            [
              39.00374358617029,
              48.0274252408509
            ],
            [
              37.98230386470837,
              47.042300184757266
            ],
            [
              39.07670356627469,
              47.141645879980246
            ],
            [
              37.83638390449954,
              46.59295033145332
            ],
            [
              38.27414378512606,
              46.03864278626767
            ],
            [
              36.96086414324648,
              45.3250362853712
            ],
            [
              38.6389436856482,
              44.132919061643435
            ],
            [
              42.5058226311825,
              43.23600218962926
            ],
            [
              44.25686215369049,
              42.702143447376585
            ],
            [
              47.54006125838944,
              41.4020062288329
            ],
            [
              48.4885409997469,
              41.729534659756325
            ],
            [
              47.321181318076185,
              43.23600218962926
            ],
            [
              46.88342143744964,
              44.60232599324905
            ],
            [
              47.7589411987027,
              45.83568396360988
            ],
            [
              49.874780621730906,
              46.542790726749246
            ],
            [
              50.823260363088394,
              47.141645879980246
            ],
            [
              52.13654000496982,
              46.8430527260268
            ],
            [
              53.08501974632725,
              46.94276914839398
            ],
            [
              52.93909978611842,
              46.089266427887054
            ],
            [
              52.86613980601402,
              45.529852684846844
            ],
            [
              51.40694020392377,
              45.3250362853712
            ],
            [
              51.11510028350608,
              44.550355442627904
            ],
            [
              50.38550048246185,
              44.550355442627904
            ],
            [
              51.552860164132596,
              43.18282486481152
            ],
            [
              52.57429988559633,
              42.594815842435196
            ],
            [
              52.72021984580519,
              41.4020062288329
            ],
            [
              53.230939706536134,
              42.1636544483257
            ],
            [
              53.887579527475964,
              41.838341706390935
            ],
            [
              54.54421934841574,
              40.96272121621513
            ],
            [
              53.37685966674499,
              40.686672933717574
            ],
            [
              52.79317982590962,
              40.797230122483256
            ],
            [
              52.57429988559633,
              40.13113355282792
            ],
            [
              53.303899686640534,
              39.62723325942417
            ],
            [
              53.74165956726711,
              38.77919106402541
            ],
            [
              53.887579527475964,
              36.93601598694079
            ],
            [
              57.364682748277346,
              37.947986779027104
            ],
            [
              63.07473433856981,
              38.06638518265112
            ],
            [
              64.87790852497739,
              36.8738263424583
            ],
            [
              66.68108271138496,
              34.92649403874698
            ],
            [
              69.38584399099818,
              32.679227804497486
            ],
            [
              72.39113430167745,
              32.93182639107373
            ],
            [
              75.69695364342653,
              34.18397526849965
            ],
            [
              80.65568265604736,
              34.803201638158455
            ],
            [
              88.01864391721341,
              35.662353729878376
            ],
            [
              94.93081163177766,
              39.123339904449494
            ],
            [
              99.7392761288645,
              40.04974237545494
            ],
            [
              104.63206014305479,
              39.10875468902745
            ],
            [
              108.4546180298372,
              36.753526366842664
            ],
            [
              109.53034513440952,
              39.17910517451028
            ],
            [
              112.16090559272902,
              40.57130199840719
            ],
            [
              115.96784380653736,
              40.62244027038193
            ],
            [
              115.96784380653736,
              40.62244027038193
            ],
            [
              121.80649616375712,
              40.9743454592641
            ]
          ]
        ]
      },
      "id": 3
    },
    {
      "type": "Feature",
      "properties": {
        "layerId": 4,
        "name": "1200 s/d 1600",
        "beginTime": 1200,
        "endTime": 1600
      },
      "geometry": {
        "type": "Polygon",
        "coordinates": [
          [
            [
              124.3275538772802,
              40.005583464863605
            ],
            [
              124.65295966554379,
              39.63067809386183
            ],
            [
              124.78312198084916,
              39.75587376498265
            ],
            [
              125.23869008441818,
              39.53035813110424
            ],
            [
              125.07598719028636,
              38.874744581471845
            ],
            [
              125.36885239972355,
              38.6717878680123
            ],
            [
              124.62041908671745,
              38.16187366464504
            ],
            [
              125.23869008441818,
              38.00819838203725
            ],
            [
              125.07598719028636,
              37.751355791581744
            ],
            [
              125.56409587268166,
              37.9825544398731
            ],
            [
              125.98712339742428,
              37.90556883320221
            ],
            [
              126.3776103433405,
              37.699879851737094
            ],
            [
              126.86571902573581,
              37.027443936576674
            ],
            [
              126.3776103433405,
              37.001460815860426
            ],
            [
              126.05220455507703,
              36.793276267694466
            ],
            [
              126.41015092216685,
              36.40140217942461
            ],
            [
              126.73555671043039,
              36.007541953363685
            ],
            [
              126.41015092216685,
              35.611704228588366
            ],
            [
              126.21490744920868,
              35.05422654504778
            ],
            [
              126.44269150099319,
              34.38556878093941
            ],
            [
              126.73555671043039,
              34.27808270451335
            ],
            [
              127.35382770813112,
              34.707199318741544
            ],
            [
              128.10226102113722,
              34.867547791169585
            ],
            [
              129.01339722827515,
              35.02758419586448
            ],
            [
              129.66420880480217,
              36.033860921750076
            ],
            [
              129.43642475301766,
              36.16532383678859
            ],
            [
              129.33880301653863,
              37.4677957296438
            ],
            [
              128.5578291247062,
              38.34075294171643
            ],
            [
              128.13480159996357,
              39.02658290074007
            ],
            [
              127.38636828695746,
              39.354448959660715
            ],
            [
              127.71177407522094,
              39.83088214558873
            ],
            [
              129.3062624377123,
              40.6011712027821
            ],
            [
              129.72928996245486,
              41.167007428941275
            ],
            [
              129.72928996245486,
              41.58212129930601
            ],
            [
              130.38010153898193,
              42.139524763798846
            ],
            [
              130.64042616959284,
              42.28413484310889
            ],
            [
              132.46619731272165,
              46.694286208281454
            ],
            [
              132.12566529841246,
              48.643183262338
            ],
            [
              128.55007914816548,
              51.906018886389546
            ],
            [
              124.63396098360829,
              53.857819424693474
            ],
            [
              119.18544875465949,
              53.857819424693474
            ],
            [
              108.96948832537925,
              52.8415121539515
            ],
            [
              94.1563457029244,
              52.63533590736321
            ],
            [
              79.04114224237668,
              53.52530462093432
            ],
            [
              72.61408591193103,
              54.02072750581718
            ],
            [
              70.23886944198264,
              55.472143745497334
            ],
            [
              62.83378280038252,
              54.99411312928791
            ],
            [
              58.78194293988528,
              53.358862283115826
            ],
            [
              52.634323841198096,
              53.52530462093432
            ],
            [
              42.15542765025532,
              53.358862283115826
            ],
            [
              37.12555747860182,
              52.68655551129203
            ],
            [
              30.55878253227698,
              52.17543046048414
            ],
            [
              23.484666418640558,
              51.65836411537592
            ],
            [
              27.815943510897142,
              56.100614809862236
            ],
            [
              25.802273345596603,
              55.29375275128356
            ],
            [
              22.844850376086328,
              53.875594903408285
            ],
            [
              23.35475088807192,
              52.22062769619947
            ],
            [
              23.6606911952625,
              50.760353002152726
            ],
            [
              22.130989659308312,
              49.18643526335899
            ],
            [
              22.246482446533804,
              48.59050452348538
            ],
            [
              22.746341285608338,
              47.9966511915332
            ],
            [
              24.210213600041783,
              47.85309805416637
            ],
            [
              26.888028809369615,
              47.66107394526344
            ],
            [
              27.81633808193658,
              46.98340420128355
            ],
            [
              27.939051454359202,
              45.33701934086392
            ],
            [
              28.953466394223483,
              44.71467648390589
            ],
            [
              29.82460700867918,
              44.96176642030184
            ],
            [
              29.82460700867918,
              45.74533397032505
            ],
            [
              31.11389511807232,
              46.75730830793998
            ],
            [
              31.939284634488587,
              46.34861266114345
            ],
            [
              32.49441614239822,
              46.14524979670398
            ],
            [
              33.61116422581898,
              46.10521527945761
            ],
            [
              34.45835242703404,
              46.21190934053368
            ],
            [
              35.421066292051165,
              46.38484599485571
            ],
            [
              37.019171307980486,
              46.80820995619129
            ],
            [
              38.00113945029787,
              47.044899063238404
            ],
            [
              39.002361869915575,
              47.1759411986757
            ],
            [
              39.27192175212042,
              46.966118894538596
            ],
            [
              37.77008812269378,
              46.543995113443486
            ],
            [
              38.27069933250266,
              46.14524979670398
            ],
            [
              36.922899921478745,
              45.28486788033362
            ],
            [
              36.614831484672294,
              45.13565547931421
            ],
            [
              37.654562458891746,
              44.68566954237309
            ],
            [
              38.328462164403675,
              44.39748059517552
            ],
            [
              38.86758192881325,
              44.20456216702004
            ],
            [
              40.33302803025978,
              43.24308594031578
            ],
            [
              41.67199526072045,
              41.63523889676722
            ],
            [
              43.21957131933266,
              41.13763022844128
            ],
            [
              43.437173087241604,
              40.11071867721665
            ],
            [
              43.7737621673748,
              39.25964830361653
            ],
            [
              42.256846172716735,
              36.969139963297266
            ],
            [
              41.08538533496804,
              35.86939620706913
            ],
            [
              41.020304177315325,
              34.593606406933006
            ],
            [
              38.61230134416522,
              33.46095647140314
            ],
            [
              39.39327523599766,
              32.065463859764904
            ],
            [
              41.638575175016,
              31.26227219634322
            ],
            [
              45.01290312694684,
              29.25082374976995
            ],
            [
              46.805785187295214,
              29.25082374976995
            ],
            [
              48.381348210024385,
              30.00643130910126
            ],
            [
              49.467943398113476,
              30.053468052655447
            ],
            [
              50.60886834560699,
              29.53484031246586
            ],
            [
              51.36888837333265,
              28.094404394243284
            ],
            [
              54.683764784903815,
              26.34769391613183
            ],
            [
              56.89368239261816,
              26.786930390812145
            ],
            [
              57.99864119647495,
              25.57501385937347
            ],
            [
              63.27788881490338,
              25.242322347690887
            ],
            [
              66.71553842690307,
              25.242322347690887
            ],
            [
              70.88982724147107,
              24.014707545824223
            ],
            [
              70.52150764018393,
              28.094404394246737
            ],
            [
              73.83638405175586,
              30.45024053733573
            ],
            [
              76.9053374500603,
              33.1441697983351
            ],
            [
              79.13838446804647,
              31.381901055915392
            ],
            [
              80.62708248003725,
              29.844527313720263
            ],
            [
              81.37143148603263,
              30.231153614901956
            ],
            [
              84.79543691361323,
              28.936576509361814
            ],
            [
              87.47509333519662,
              28.15193975400274
            ],
            [
              89.85701015438178,
              27.95487136021559
            ],
            [
              92.09005717236982,
              28.15193975400274
            ],
            [
              95.29075789814999,
              29.066778812707042
            ],
            [
              98.83879477463051,
              27.854018991421043
            ],
            [
              98.16742658366036,
              24.643235953089246
            ],
            [
              99.73099803152883,
              22.500504011590436
            ],
            [
              100.61150070018971,
              21.548229799849835
            ],
            [
              101.68767062855142,
              22.047838828894882
            ],
            [
              102.76384055691324,
              22.726284352412094
            ],
            [
              104.32917863453042,
              22.636016699217777
            ],
            [
              106.4815184912552,
              22.996729415739154
            ],
            [
              107.11743708528718,
              22.00249200232669
            ],
            [
              107.8511893091702,
              21.59372061892404
            ],
            [
              109.9546123509682,
              21.366124097131845
            ],
            [
              109.71002827634055,
              20.726979071239413
            ],
            [
              110.10136279574482,
              20.22288953810606
            ],
            [
              110.49269731514909,
              20.22288953810606
            ],
            [
              110.24811324052138,
              21.13817333529458
            ],
            [
              111.42211679873549,
              21.457205385233678
            ],
            [
              113.42770621068252,
              22.229080591904918
            ],
            [
              113.52553984053355,
              23.041751158803194
            ],
            [
              113.91687435993782,
              22.410088352253155
            ],
            [
              115.77571332710824,
              22.77139586803034
            ],
            [
              117.34105140472656,
              23.670465859275353
            ],
            [
              120.17822667040764,
              26.33013801265072
            ],
            [
              121.93923200772815,
              28.972896595023244
            ],
            [
              122.03706563757925,
              30.121852592912447
            ],
            [
              120.56956118981196,
              30.24870422380033
            ],
            [
              121.89031519280263,
              31.006365000285285
            ],
            [
              121.66484352782851,
              32.145684601477996
            ],
            [
              120.48829173003446,
              34.29849204586448
            ],
            [
              119.31173993224218,
              34.90376742766158
            ],
            [
              120.63536070475845,
              36.33829700833233
            ],
            [
              122.76786083825885,
              36.92838400777738
            ],
            [
              122.0325159646386,
              37.572243611398164
            ],
            [
              120.04708480586231,
              37.572243611398164
            ],
            [
              119.23820544488018,
              37.22172947184606
            ],
            [
              119.16467095751818,
              37.80500783141663
            ],
            [
              117.39984326082975,
              38.49890668319037
            ],
            [
              117.5469122355538,
              38.95783010817456
            ],
            [
              118.50286057125999,
              39.300085296454085
            ],
            [
              119.97355031850032,
              40.14842950167585
            ],
            [
              121.51777455310452,
              41.04179449838017
            ],
            [
              122.17958493936271,
              40.48484000498959
            ],
            [
              121.00303314156855,
              39.64067525966897
            ],
            [
              121.37070557837865,
              38.61391382520861
            ],
            [
              123.28260224979283,
              39.52733054133171
            ],
            [
              123.28260224979283,
              39.52733054133171
            ],
            [
              124.3275538772802,
              40.005583464863605
            ]
          ]
        ]
      },
      "id": 4
    },
    {
      "type": "Feature",
      "properties": {
        "layerId": 5,
        "name": "1200 s/d 1600",
        "beginTime": 1200,
        "endTime": 1600
      },
      "geometry": {
        "type": "Polygon",
        "coordinates": [
          [
            [
              109.26806556413419,
              19.752166271270866
            ],
            [
              108.78644801784316,
              19.426403617859137
            ],
            [
              108.56416299647805,
              19.298245845003237
            ],
            [
              108.67530550716191,
              18.50378958417795
            ],
            [
              108.959336367795,
              18.37492298002367
            ],
            [
              109.47800141764685,
              18.210771668586773
            ],
            [
              109.84847645325533,
              18.35148231990938
            ],
            [
              110.15720564959571,
              18.480366485042353
            ],
            [
              110.57707735661864,
              18.84306269503523
            ],
            [
              110.60177569232582,
              19.25161808249794
            ],
            [
              110.93520322437342,
              19.6242667341956
            ],
            [
              110.99694906364152,
              19.879963371167875
            ],
            [
              110.68821986730114,
              20.181618840708538
            ],
            [
              110.37949067096076,
              20.077265206836913
            ],
            [
              110.00901563535228,
              19.972842059842222
            ],
            [
              109.60149309618299,
              19.99605319553993
            ],
            [
              109.21866889272093,
              19.891576190670875
            ],
            [
              109.21866889272093,
              19.891576190670875
            ],
            [
              109.21866889272093,
              19.891576190670875
            ],
            [
              109.26806556413419,
              19.752166271270866
            ]
          ]
        ]
      },
      "id": 5
    }
  ]
}