{
  "type": "FeatureCollection",
  "name": "macedonian",
  "features": [
    {
      "type": "Feature",
      "properties": {
        "layerId": 1,
        "name": "-359 s/d 580",
        "beginTime": -359,
        "endTime": 580
      },
      "geometry": {
        "type": "Polygon",
        "coordinates": [
          [
            [
              22.983221525015125,
              41.329976638308096
            ],
            [
              23.229636296435956,
              41.57868003060406
            ],
            [
              23.24846880131858,
              41.85280303590676
            ],
            [
              22.928316218313512,
              42.209506347142565
            ],
            [
              22.598747382866122,
              42.52258127342395
            ],
            [
              22.31625980962633,
              42.79265026599572
            ],
            [
              22.062020993710547,
              42.992710191832
            ],
            [
              21.72303590582277,
              43.075303751460325
            ],
            [
              21.346385808169714,
              43.12343199068573
            ],
            [
              21.026233225164646,
              43.144046797734575
            ],
            [
              20.178770505445414,
              42.70967704996198
            ],
            [
              20.13168924323884,
              42.36971735413769
            ],
            [
              20.361576994010335,
              41.9344254304157
            ],
            [
              20.39692669548839,
              41.45932400085758
            ],
            [
              20.485300949183568,
              40.86051760782533
            ],
            [
              20.67972430731288,
              40.51204951683758
            ],
            [
              20.520650650661594,
              40.21576996708586
            ],
            [
              20.23785303883713,
              39.9859354030709
            ],
            [
              20.183623988964058,
              39.74723529527171
            ],
            [
              19.966686441863658,
              39.68136277861316
            ],
            [
              20.108922630123743,
              39.62638354654655
            ],
            [
              20.114534336502004,
              39.52906467388166
            ],
            [
              20.22115675770013,
              39.468441764784586
            ],
            [
              20.2043216385631,
              39.431609206523405
            ],
            [
              20.261477912034593,
              39.35657694988413
            ],
            [
              20.34580167072764,
              39.26958907891279
            ],
            [
              20.46291800224543,
              39.24782521592917
            ],
            [
              20.599402626332676,
              39.095477334804656
            ],
            [
              20.68376092979554,
              39.05618429953455
            ],
            [
              20.700632590488112,
              38.99392558780616
            ],
            [
              20.729478896715108,
              38.93452483748456
            ],
            [
              20.77713849078347,
              38.95708724560748
            ],
            [
              20.843447491226698,
              38.947418521420815
            ],
            [
              20.83930317869863,
              38.973198854655436
            ],
            [
              20.758489084408637,
              39.00863149503576
            ],
            [
              20.789571428366173,
              39.04726505122753
            ],
            [
              20.814437303532372,
              39.05531105077466
            ],
            [
              20.845519647490732,
              39.05692014068518
            ],
            [
              20.857952585073463,
              39.035999111955505
            ],
            [
              20.87867414771239,
              39.02795091261601
            ],
            [
              20.882818460239662,
              39.04726505122753
            ],
            [
              20.909756491669924,
              39.05048356104382
            ],
            [
              20.942910991891495,
              39.02795091261601
            ],
            [
              20.994714898487985,
              39.00863149503576
            ],
            [
              21.06309605519445,
              38.99735939722345
            ],
            [
              21.092106242888747,
              39.018291863650234
            ],
            [
              21.106611336735483,
              39.031170302333635
            ],
            [
              21.150126618276573,
              39.00219051620178
            ],
            [
              21.143910149485237,
              38.97642073674328
            ],
            [
              21.116972118054946,
              38.93130105015109
            ],
            [
              21.162559555859247,
              38.907117974672985
            ],
            [
              21.162559555859247,
              38.87808740617021
            ],
            [
              21.108683492999546,
              38.908730436106964
            ],
            [
              21.07760114904201,
              38.87486105503092
            ],
            [
              21.027869398709612,
              38.89744243693022
            ],
            [
              21.04237449255632,
              38.93130105015109
            ],
            [
              20.994714898487985,
              38.92001664056471
            ],
            [
              20.99838346433333,
              38.947418521420815
            ],
            [
              20.94865171400096,
              38.94419532025293
            ],
            [
              20.909280744987996,
              38.95708724560748
            ],
            [
              20.898919963668504,
              38.931301050151035
            ],
            [
              20.86783761971097,
              38.95869857140062
            ],
            [
              20.84504390080886,
              38.92646509440408
            ],
            [
              20.80774508805908,
              38.92324094074655
            ],
            [
              20.787023525421034,
              38.94419532025293
            ],
            [
              20.74972471267128,
              38.93452483748453
            ],
            [
              20.778734900365578,
              38.886152643186705
            ],
            [
              20.755236997211057,
              38.86966693729664
            ],
            [
              20.708073804582682,
              38.84763145965232
            ],
            [
              20.637329015639665,
              38.83844799550005
            ],
            [
              20.58073318448561,
              38.75022644621595
            ],
            [
              20.558351418535693,
              38.68569339562305
            ],
            [
              20.53920102344736,
              38.54603771661894
            ],
            [
              20.612610871288126,
              38.60841759800536
            ],
            [
              20.66048685901032,
              38.57349153832297
            ],
            [
              20.74028017188141,
              38.60841759800536
            ],
            [
              20.743471904396557,
              38.69814942785965
            ],
            [
              20.72112977679177,
              38.77532840892994
            ],
            [
              20.77538922954426,
              38.74297318360553
            ],
            [
              20.880716402534006,
              38.77781666479751
            ],
            [
              20.883908135049154,
              38.67323519466137
            ],
            [
              20.982851843008632,
              38.6532975627014
            ],
            [
              21.02753609821559,
              38.568500714359686
            ],
            [
              21.02753609821559,
              38.49609481626723
            ],
            [
              21.072220353423916,
              38.50109066566509
            ],
            [
              21.126493262856712,
              38.383228162225976
            ],
            [
              21.126493262856712,
              38.30683051146417
            ],
            [
              21.256373379063263,
              38.29663807053592
            ],
            [
              21.360277472028514,
              38.3730464649129
            ],
            [
              21.347289460407836,
              38.45954520716879
            ],
            [
              21.503145599855713,
              38.53578159608105
            ],
            [
              21.78888185551014,
              38.703217499017455
            ],
            [
              22.216035861551546,
              39.406651601780595
            ],
            [
              22.49070153890841,
              40.317327771690884
            ],
            [
              22.812736135135253,
              40.989189221652765
            ],
            [
              22.844939594757903,
              41.00134222416469
            ],
            [
              22.844939594757903,
              41.00134222416469
            ],
            [
              22.983221525015125,
              41.329976638308096
            ]
          ]
        ]
      },
      "id": 1
    },
    {
      "type": "Feature",
      "properties": {
        "layerId": 2,
        "name": "581 s/d 1911",
        "beginTime": 581,
        "endTime": 1911
      },
      "geometry": {
        "type": "Polygon",
        "coordinates": [
          [
            [
              22.98153439445808,
              41.33170938987756
            ],
            [
              23.22794916587891,
              41.580412782173525
            ],
            [
              23.246781670761536,
              41.85453578747622
            ],
            [
              22.931438029427824,
              42.07926145988722
            ],
            [
              22.692386483734907,
              42.273576438045325
            ],
            [
              22.423072520344505,
              42.444656445558564
            ],
            [
              22.23759011812919,
              42.49831342104699
            ],
            [
              21.83283741782307,
              42.51484476225497
            ],
            [
              21.555281437208777,
              42.52311423179907
            ],
            [
              21.22391771263355,
              42.415808433768916
            ],
            [
              20.81087653328032,
              42.33713640766703
            ],
            [
              20.713411297027648,
              42.11149977222837
            ],
            [
              20.558852339764883,
              41.89175428393361
            ],
            [
              20.395239564931344,
              41.46105675242704
            ],
            [
              20.674552579976847,
              40.86976114368554
            ],
            [
              20.754338279702807,
              40.58242215820866
            ],
            [
              20.51896352010455,
              40.217502718655325
            ],
            [
              20.236165908280086,
              39.98766815464036
            ],
            [
              20.181936858407013,
              39.74896804684117
            ],
            [
              19.964999311306613,
              39.68309553018263
            ],
            [
              20.1072354995667,
              39.62811629811601
            ],
            [
              20.11284720594496,
              39.53079742545113
            ],
            [
              20.219469627143084,
              39.47017451635405
            ],
            [
              20.202634508006057,
              39.43334195809287
            ],
            [
              20.259790781477548,
              39.35830970145359
            ],
            [
              20.344114540170594,
              39.27132183048225
            ],
            [
              20.461230871688386,
              39.24955796749863
            ],
            [
              20.59771549577563,
              39.09721008637412
            ],
            [
              20.682073799238495,
              39.05791705110401
            ],
            [
              20.698945459931068,
              38.99565833937562
            ],
            [
              20.727791766158063,
              38.93625758905402
            ],
            [
              20.775451360226427,
              38.958819997176946
            ],
            [
              20.841760360669653,
              38.94915127299028
            ],
            [
              20.837616048141584,
              38.9749316062249
            ],
            [
              20.756801953851593,
              39.01036424660522
            ],
            [
              20.78788429780913,
              39.04899780279699
            ],
            [
              20.812750172975328,
              39.057043802344126
            ],
            [
              20.843832516933688,
              39.05865289225464
            ],
            [
              20.856265454516418,
              39.03773186352497
            ],
            [
              20.876987017155344,
              39.02968366418547
            ],
            [
              20.881131329682617,
              39.04899780279699
            ],
            [
              20.90806936111288,
              39.05221631261328
            ],
            [
              20.94122386133445,
              39.02968366418547
            ],
            [
              20.99302776793094,
              39.01036424660522
            ],
            [
              21.061408924637405,
              38.99909214879291
            ],
            [
              21.090419112331702,
              39.0200246152197
            ],
            [
              21.10492420617844,
              39.0329030539031
            ],
            [
              21.11618030754451,
              39.109518940917866
            ],
            [
              21.200668242875395,
              39.11156424651281
            ],
            [
              21.298190425347258,
              39.10747401994598
            ],
            [
              21.357767302872077,
              39.15460469810435
            ],
            [
              21.39054863580094,
              39.17230387584951
            ],
            [
              21.36706989122891,
              39.19711438916863
            ],
            [
              21.386926480298087,
              39.233809479873486
            ],
            [
              21.437960325696878,
              39.27098940358212
            ],
            [
              21.446597040921517,
              39.308296081403256
            ],
            [
              21.43619869948236,
              39.32283860026223
            ],
            [
              21.423359676916363,
              39.35198158012693
            ],
            [
              21.410282047535873,
              39.36866949029982
            ],
            [
              21.356946365959544,
              39.374933992615865
            ],
            [
              21.322166520593072,
              39.37075726129018
            ],
            [
              21.29582534664297,
              39.40840503156676
            ],
            [
              21.265686507957412,
              39.43232373956354
            ],
            [
              21.226661182788575,
              39.462426360004514
            ],
            [
              21.224874106613157,
              39.49909280105254
            ],
            [
              21.222435685458862,
              39.54518337480101
            ],
            [
              21.213187427637706,
              39.62240228142244
            ],
            [
              21.177473362150835,
              39.67236331213783
            ],
            [
              21.282736034966234,
              39.684875215111674
            ],
            [
              21.301509493134972,
              39.75944546566896
            ],
            [
              21.27421526632736,
              39.77241078105112
            ],
            [
              21.26986436345601,
              39.81567296243438
            ],
            [
              21.323160510771032,
              39.808076830538425
            ],
            [
              21.407208271676893,
              39.82556491322251
            ],
            [
              21.44086821949668,
              39.81875657242
            ],
            [
              21.45621283657144,
              39.84589557169957
            ],
            [
              21.47393288492094,
              39.85949230763944
            ],
            [
              21.530932895853596,
              39.86971319273198
            ],
            [
              21.592990656469738,
              39.856251718709416
            ],
            [
              21.657498051083195,
              39.84472757079709
            ],
            [
              21.736553460187565,
              39.82363407414189
            ],
            [
              21.82116829133298,
              39.82363407414189
            ],
            [
              21.885562731536027,
              39.81597463420795
            ],
            [
              21.96788431073813,
              39.81788143392566
            ],
            [
              21.97703485655626,
              39.85723865313557
            ],
            [
              21.992061270521646,
              39.89911750333826
            ],
            [
              22.023170605258684,
              40.001626911417986
            ],
            [
              22.129843468963372,
              40.09358334519999
            ],
            [
              22.243196797681975,
              40.239019701149516
            ],
            [
              22.147615159243145,
              40.41671450745534
            ],
            [
              22.00778752336032,
              40.561168219982704
            ],
            [
              21.962420040190835,
              40.6828090541006
            ],
            [
              22.11083240228649,
              41.09396898625232
            ],
            [
              22.259725719673213,
              41.11796911924543
            ],
            [
              22.61742058195634,
              41.07604384579227
            ],
            [
              22.776768652351564,
              41.1515560465661
            ],
            [
              22.81252535460439,
              41.28632021836623
            ],
            [
              22.98153439445808,
              41.33170938987756
            ]
          ]
        ]
      },
      "id": 2
    },
    {
      "type": "Feature",
      "properties": {
        "layerId": 3,
        "name": "1912 s/d 9146",
        "beginTime": 1912,
        "endTime": 9146
      },
      "geometry": {
        "type": "Polygon",
        "coordinates": [
          [
            [
              22.22989929014932,
              41.15746113707797
            ],
            [
              22.265098874623476,
              41.15150472463506
            ],
            [
              22.309482428625273,
              41.13862435226818
            ],
            [
              22.329461620251095,
              41.11198242749683
            ],
            [
              22.35248213286218,
              41.12380506543886
            ],
            [
              22.38603364843854,
              41.127752414826574
            ],
            [
              22.409453359051184,
              41.11592007572716
            ],
            [
              22.463702922404707,
              41.11493536103262
            ],
            [
              22.558023391376025,
              41.12577833517645
            ],
            [
              22.58249499301982,
              41.112966536979826
            ],
            [
              22.631784340761385,
              41.130715053973915
            ],
            [
              22.659691699581884,
              41.17736908432312
            ],
            [
              22.696645406754357,
              41.13961392868552
            ],
            [
              22.749917849434013,
              41.14654666082998
            ],
            [
              22.75830688420129,
              41.16939605855629
            ],
            [
              22.794925701309694,
              41.21944424397134
            ],
            [
              22.772262576833498,
              41.24972273827592
            ],
            [
              22.78079543897985,
              41.30589765588647
            ],
            [
              22.8153318253394,
              41.32454441708279
            ],
            [
              22.93211207674412,
              41.33388137696619
            ],
            [
              22.99073972156674,
              41.36654058145763
            ],
            [
              22.993519729151018,
              41.44960236382164
            ],
            [
              22.973906865770488,
              41.619804691306314
            ],
            [
              23.06121843106726,
              41.734326676089495
            ],
            [
              22.997637908394978,
              41.789160309912575
            ],
            [
              22.928922156707415,
              41.92432644008761
            ],
            [
              22.895704037809708,
              42.04112286985199
            ],
            [
              22.720054765685546,
              42.08304795592355
            ],
            [
              22.588062712649418,
              42.122279334628814
            ],
            [
              22.529993275424687,
              42.18976167611447
            ],
            [
              22.41189607378763,
              42.317451813883764
            ],
            [
              22.29793744598723,
              42.38906193523184
            ],
            [
              22.205570269834766,
              42.37250720676286
            ],
            [
              22.05378522898934,
              42.328447285696
            ],
            [
              21.930223515509795,
              42.35872505276586
            ],
            [
              21.892689863487675,
              42.3256976872014
            ],
            [
              21.830686599543867,
              42.33394794449214
            ],
            [
              21.730613968750163,
              42.273547729166495
            ],
            [
              21.668241645514513,
              42.25711572225333
            ],
            [
              21.55158054269222,
              42.26532954561358
            ],
            [
              21.464270202096742,
              42.29548422640528
            ],
            [
              21.354330816098468,
              42.24070114319059
            ],
            [
              21.2738760484049,
              42.13714519483176
            ],
            [
              21.23753728372168,
              42.10458728789223
            ],
            [
              21.208492459062256,
              42.175216589905574
            ],
            [
              21.142882361089136,
              42.22157279338492
            ],
            [
              21.022915496436497,
              42.18611141639602
            ],
            [
              20.896200933193597,
              42.13714519483176
            ],
            [
              20.766460109975952,
              42.08292022633074
            ],
            [
              20.71770563694102,
              41.98579499177049
            ],
            [
              20.73854676000468,
              41.926395600613574
            ],
            [
              20.705807966521633,
              41.875216417982074
            ],
            [
              20.561876094843313,
              41.888544126399694
            ],
            [
              20.507883578263687,
              41.76901313456199
            ],
            [
              20.500655340911578,
              41.66417620785009
            ],
            [
              20.537172013407172,
              41.58702790029304
            ],
            [
              20.44071427870631,
              41.563009675489184
            ],
            [
              20.454851707836212,
              41.48166841744529
            ],
            [
              20.523301613062927,
              41.400819528754965
            ],
            [
              20.50618355343235,
              41.35061070498318
            ],
            [
              20.48791729930707,
              41.324644613815565
            ],
            [
              20.50169024784904,
              41.262980697041996
            ],
            [
              20.55225032284727,
              41.18000526782285
            ],
            [
              20.58666938171791,
              41.10353723412183
            ],
            [
              20.641448296233932,
              40.938576276570785
            ],
            [
              20.6753004688795,
              40.884388040656034
            ],
            [
              20.877852483086087,
              40.884388040656034
            ],
            [
              20.930300806697005,
              40.85210909964496
            ],
            [
              20.913623597484047,
              40.7977824899819
            ],
            [
              20.894714711817358,
              40.76533672822538
            ],
            [
              20.94884748120785,
              40.74735971810048
            ],
            [
              21.009780234517052,
              40.71150897499672
            ],
            [
              21.094318031762356,
              40.70972004207459
            ],
            [
              21.292805947874314,
              40.758141783031675
            ],
            [
              21.435587847066614,
              40.80139451024414
            ],
            [
              21.58514972170053,
              40.81947547704735
            ],
            [
              21.71529036687025,
              40.868468430366875
            ],
            [
              21.85184737255284,
              40.8921488068093
            ],
            [
              21.836840641758414,
              40.961710683477065
            ],
            [
              21.916585690283398,
              41.01699105267846
            ],
            [
              21.978634455135193,
              41.08747741468375
            ],
            [
              22.180840738335405,
              41.12263915367208
            ],
            [
              22.180840738335405,
              41.12263915367208
            ],
            [
              22.22989929014932,
              41.15746113707797
            ]
          ]
        ]
      },
      "id": 3
    }
  ]
}