{
  "type": "FeatureCollection",
  "name": "sardinian",
  "features": [
    {
      "id": 1,
      "type": "Feature",
      "geometry": {
        "type": "Polygon",
        "coordinates": [
          [
            [
              8.855014788,
              38.877365304
            ],
            [
              9.008001979,
              38.980975985
            ],
            [
              9.051198362,
              39.059283435
            ],
            [
              9.011601677,
              39.124938802
            ],
            [
              9.065597156,
              39.193322916
            ],
            [
              9.10879354,
              39.217032484
            ],
            [
              9.144790526,
              39.183557826
            ],
            [
              9.166388717,
              39.18634799
            ],
            [
              9.169988416,
              39.204481357
            ],
            [
              9.227583594,
              39.232369704
            ],
            [
              9.245582087,
              39.212849024
            ],
            [
              9.279779223,
              39.212849024
            ],
            [
              9.432766414,
              39.119353491
            ],
            [
              9.490361591,
              39.13052367
            ],
            [
              9.506560235,
              39.124938802
            ],
            [
              9.504760386,
              39.103991602
            ],
            [
              9.524165998,
              39.091735016
            ],
            [
              9.522968697,
              39.118678692
            ],
            [
              9.543322809,
              39.134468472
            ],
            [
              9.56128232,
              39.135397172
            ],
            [
              9.571427171,
              39.169755773
            ],
            [
              9.583229726,
              39.177075602
            ],
            [
              9.578508704,
              39.186834188
            ],
            [
              9.568279822,
              39.188663772
            ],
            [
              9.564345637,
              39.207566685
            ],
            [
              9.569853496,
              39.214882576
            ],
            [
              9.572214008,
              39.237435109
            ],
            [
              9.587163912,
              39.269118311
            ],
            [
              9.612342698,
              39.297133823
            ],
            [
              9.632800461,
              39.292871316
            ],
            [
              9.632800461,
              39.303831525
            ],
            [
              9.609982186,
              39.316007522
            ],
            [
              9.598966468,
              39.337310419
            ],
            [
              9.60353918,
              39.371322101
            ],
            [
              9.633013325,
              39.434452016
            ],
            [
              9.643872221,
              39.448828054
            ],
            [
              9.646974763,
              39.466394736
            ],
            [
              9.645423492,
              39.492736447
            ],
            [
              9.636491835,
              39.496367635
            ],
            [
              9.633940393,
              39.511624608
            ],
            [
              9.644146159,
              39.545571649
            ],
            [
              9.653076203,
              39.552949245
            ],
            [
              9.653076203,
              39.561309571
            ],
            [
              9.657541225,
              39.571143959
            ],
            [
              9.656267528,
              39.591185464
            ],
            [
              9.658941835,
              39.603843817
            ],
            [
              9.652829135,
              39.625622544
            ],
            [
              9.651683004,
              39.639745622
            ],
            [
              9.650217613,
              39.660589662
            ],
            [
              9.662045787,
              39.672426171
            ],
            [
              9.659680152,
              39.699733451
            ],
            [
              9.675056778,
              39.710653339
            ],
            [
              9.671508326,
              39.776136372
            ],
            [
              9.696347491,
              39.853362613
            ],
            [
              9.686884952,
              39.876967425
            ],
            [
              9.680970865,
              39.906008352
            ],
            [
              9.717638204,
              39.930502063
            ],
            [
              9.711724117,
              39.937757777
            ],
            [
              9.695164674,
              39.946826337
            ],
            [
              9.685702135,
              39.960426923
            ],
            [
              9.738536315,
              40.084175541
            ],
            [
              9.685988181,
              40.114322267
            ],
            [
              9.640008563,
              40.183609041
            ],
            [
              9.628185232,
              40.254830331
            ],
            [
              9.689161128,
              40.343224871
            ],
            [
              9.736352019,
              40.379848957
            ],
            [
              9.757325748,
              40.381180367
            ],
            [
              9.774803856,
              40.405141248
            ],
            [
              9.774803856,
              40.427097898
            ],
            [
              9.794029774,
              40.441731684
            ],
            [
              9.820871208,
              40.494822076
            ],
            [
              9.829801253,
              40.53119248
            ],
            [
              9.793774369,
              40.542503375
            ],
            [
              9.788008678,
              40.57973566
            ],
            [
              9.754855954,
              40.600532917
            ],
            [
              9.741883149,
              40.642108024
            ],
            [
              9.751973109,
              40.676005391
            ],
            [
              9.718820385,
              40.706607562
            ],
            [
              9.717378962,
              40.754668288
            ],
            [
              9.672694856,
              40.789599739
            ],
            [
              9.691652903,
              40.807915215
            ],
            [
              9.683981965,
              40.822429052
            ],
            [
              9.689735168,
              40.834763316
            ],
            [
              9.708912513,
              40.830410308
            ],
            [
              9.729048725,
              40.843468474
            ],
            [
              9.701241575,
              40.847820624
            ],
            [
              9.679187628,
              40.8630509
            ],
            [
              9.66480462,
              40.856524068
            ],
            [
              9.657133682,
              40.8630509
            ],
            [
              9.657133682,
              40.879002671
            ],
            [
              9.645627275,
              40.87972766
            ],
            [
              9.622614461,
              40.889876675
            ],
            [
              9.630285399,
              40.902923121
            ],
            [
              9.647545009,
              40.918140723
            ],
            [
              9.611108054,
              40.92466148
            ],
            [
              9.58809524,
              40.905821982
            ],
            [
              9.561246958,
              40.921038917
            ],
            [
              9.545905082,
              40.918865284
            ],
            [
              9.511385861,
              40.915242402
            ],
            [
              9.511385861,
              40.921038917
            ],
            [
              9.522892268,
              40.92466148
            ],
            [
              9.522892268,
              40.930457169
            ],
            [
              9.530563206,
              40.933354823
            ],
            [
              9.541110746,
              40.92611045
            ],
            [
              9.557411489,
              40.928283845
            ],
            [
              9.567000161,
              40.923212479
            ],
            [
              9.577547701,
              40.928283845
            ],
            [
              9.567000161,
              40.937701065
            ],
            [
              9.593646652,
              40.966394313
            ],
            [
              9.583440887,
              40.9827682
            ],
            [
              9.598749535,
              40.989027729
            ],
            [
              9.616609624,
              41.004914636
            ],
            [
              9.633193992,
              40.986620288
            ],
            [
              9.653605522,
              40.9827682
            ],
            [
              9.666362728,
              40.99673095
            ],
            [
              9.656156963,
              41.005877356
            ],
            [
              9.637021154,
              41.002026392
            ],
            [
              9.600025255,
              41.02224144
            ],
            [
              9.580889446,
              41.012616
            ],
            [
              9.576424424,
              41.003951902
            ],
            [
              9.565580798,
              41.009246764
            ],
            [
              9.560477916,
              41.002507775
            ],
            [
              9.552185732,
              41.007321409
            ],
            [
              9.559202195,
              41.02224144
            ],
            [
              9.57004582,
              41.02897841
            ],
            [
              9.561115776,
              41.031384304
            ],
            [
              9.565580798,
              41.03812034
            ],
            [
              9.554737173,
              41.037639217
            ],
            [
              9.550272151,
              41.030903133
            ],
            [
              9.523482017,
              41.030903133
            ],
            [
              9.5285849,
              41.020316464
            ],
            [
              9.522206297,
              41.013578607
            ],
            [
              9.510724811,
              41.007802753
            ],
            [
              9.50944909,
              41.013578607
            ],
            [
              9.519016995,
              41.019353955
            ],
            [
              9.519016995,
              41.02897841
            ],
            [
              9.526568611,
              41.044637682
            ],
            [
              9.542794691,
              41.062399659
            ],
            [
              9.530232565,
              41.067530004
            ],
            [
              9.540701003,
              41.089230881
            ],
            [
              9.543841535,
              41.082129565
            ],
            [
              9.553263129,
              41.077000359
            ],
            [
              9.565301833,
              41.086863861
            ],
            [
              9.573153162,
              41.103431212
            ],
            [
              9.566348677,
              41.117628472
            ],
            [
              9.552154611,
              41.119928356
            ],
            [
              9.541690459,
              41.114672806
            ],
            [
              9.539365092,
              41.123431822
            ],
            [
              9.552735952,
              41.132189668
            ],
            [
              9.541109117,
              41.137443815
            ],
            [
              9.527738257,
              41.134378947
            ],
            [
              9.5352957,
              41.141384148
            ],
            [
              9.527738257,
              41.147075324
            ],
            [
              9.532970333,
              41.155392307
            ],
            [
              9.516692764,
              41.157143117
            ],
            [
              9.507972637,
              41.151890548
            ],
            [
              9.514948738,
              41.147950845
            ],
            [
              9.510879346,
              41.140508539
            ],
            [
              9.501577878,
              41.144448689
            ],
            [
              9.487625676,
              41.145324246
            ],
            [
              9.483556284,
              41.140946345
            ],
            [
              9.470766765,
              41.145324246
            ],
            [
              9.46262798,
              41.138757285
            ],
            [
              9.464372006,
              41.134816794
            ],
            [
              9.471348107,
              41.133941097
            ],
            [
              9.468441398,
              41.128248782
            ],
            [
              9.462046639,
              41.124745573
            ],
            [
              9.447513095,
              41.101094023
            ],
            [
              9.441699677,
              41.125183484
            ],
            [
              9.44576907,
              41.136568153
            ],
            [
              9.438211627,
              41.137005985
            ],
            [
              9.431816867,
              41.14357312
            ],
            [
              9.431816867,
              41.154954597
            ],
            [
              9.407981855,
              41.158456193
            ],
            [
              9.420771374,
              41.16502118
            ],
            [
              9.425422108,
              41.177711624
            ],
            [
              9.413213931,
              41.180336926
            ],
            [
              9.394610995,
              41.180336926
            ],
            [
              9.377170742,
              41.189087173
            ],
            [
              9.368450616,
              41.184712196
            ],
            [
              9.366706591,
              41.20658416
            ],
            [
              9.34984768,
              41.203085137
            ],
            [
              9.347522313,
              41.207896245
            ],
            [
              9.339383528,
              41.205709422
            ],
            [
              9.331244744,
              41.195211651
            ],
            [
              9.335895478,
              41.189087173
            ],
            [
              9.327756693,
              41.188212201
            ],
            [
              9.319617909,
              41.19433676
            ],
            [
              9.310316441,
              41.190837083
            ],
            [
              9.289388137,
              41.195211651
            ],
            [
              9.299852289,
              41.201772955
            ],
            [
              9.28706277,
              41.220141107
            ],
            [
              9.278923986,
              41.208333601
            ],
            [
              9.279505328,
              41.196086529
            ],
            [
              9.28706277,
              41.189962134
            ],
            [
              9.278923986,
              41.190837083
            ],
            [
              9.271084261,
              41.196603376
            ],
            [
              9.281781485,
              41.216435822
            ],
            [
              9.279871267,
              41.229654113
            ],
            [
              9.270320173,
              41.241720655
            ],
            [
              9.245105287,
              41.248040335
            ],
            [
              9.235936238,
              41.250625482
            ],
            [
              9.235936238,
              41.260103482
            ],
            [
              9.224474926,
              41.260390672
            ],
            [
              9.210339308,
              41.253210528
            ],
            [
              9.201934346,
              41.248327578
            ],
            [
              9.182450116,
              41.248327578
            ],
            [
              9.172516979,
              41.245455085
            ],
            [
              9.167040273,
              41.237116079
            ],
            [
              9.156797691,
              41.239566764
            ],
            [
              9.153538688,
              41.246568217
            ],
            [
              9.14422725,
              41.247968417
            ],
            [
              9.137243672,
              41.242717511
            ],
            [
              9.140968247,
              41.232214432
            ],
            [
              9.149814113,
              41.230113614
            ],
            [
              9.157263263,
              41.235715646
            ],
            [
              9.166109129,
              41.230813894
            ],
            [
              9.16378127,
              41.218557906
            ],
            [
              9.156797691,
              41.204197971
            ],
            [
              9.153538688,
              41.199644163
            ],
            [
              9.157263263,
              41.190185241
            ],
            [
              9.159125551,
              41.182126562
            ],
            [
              9.169368132,
              41.17511821
            ],
            [
              9.156332119,
              41.161099255
            ],
            [
              9.148882969,
              41.154789747
            ],
            [
              9.134915812,
              41.152686442
            ],
            [
              9.120948655,
              41.156542449
            ],
            [
              9.117881352,
              41.152455623
            ],
            [
              9.120815657,
              41.148983589
            ],
            [
              9.108240066,
              41.136356461
            ],
            [
              9.079735394,
              41.127831776
            ],
            [
              9.057518517,
              41.127200274
            ],
            [
              9.050392348,
              41.139513471
            ],
            [
              9.037397571,
              41.134777899
            ],
            [
              9.007216153,
              41.120569133
            ],
            [
              8.978292295,
              41.089930884
            ],
            [
              8.919109705,
              41.040752888
            ],
            [
              8.878749868,
              41.027705403
            ],
            [
              8.86433564,
              40.991811486
            ],
            [
              8.847038567,
              40.974401336
            ],
            [
              8.790823078,
              40.925410652
            ],
            [
              8.702896289,
              40.916697392
            ],
            [
              8.653887915,
              40.899267426
            ],
            [
              8.62505946,
              40.87529372
            ],
            [
              8.59911385,
              40.850221016
            ],
            [
              8.518394174,
              40.822957311
            ],
            [
              8.440557344,
              40.82077573
            ],
            [
              8.414611735,
              40.842588309
            ],
            [
              8.316310273,
              40.85181424
            ],
            [
              8.212846109,
              40.935071625
            ],
            [
              8.269584522,
              40.998075636
            ],
            [
              8.356360918,
              41.071084914
            ],
            [
              8.319647827,
              41.138986272
            ],
            [
              8.2495592,
              41.088695712
            ],
            [
              8.176133018,
              40.93759294
            ],
            [
              8.212846109,
              40.889671494
            ],
            [
              8.139419927,
              40.740641454
            ],
            [
              8.189483233,
              40.674860953
            ],
            [
              8.122732159,
              40.601413754
            ],
            [
              8.156107696,
              40.56339212
            ],
            [
              8.189483233,
              40.609015487
            ],
            [
              8.202833448,
              40.578603367
            ],
            [
              8.299622505,
              40.581138239
            ],
            [
              8.320662434,
              40.529271851
            ],
            [
              8.381958621,
              40.482666016
            ],
            [
              8.37638624,
              40.359640893
            ],
            [
              8.451555284,
              40.305970333
            ],
            [
              8.446538087,
              40.187256526
            ],
            [
              8.491692861,
              40.091367974
            ],
            [
              8.35622854,
              40.056814974
            ],
            [
              8.39134892,
              40.014559725
            ],
            [
              8.39134892,
              39.929970699
            ],
            [
              8.456572481,
              39.883787114
            ],
            [
              8.496710058,
              39.89148654
            ],
            [
              8.546882029,
              39.8375724
            ],
            [
              8.516778846,
              39.768191981
            ],
            [
              8.456572481,
              39.787471341
            ],
            [
              8.416434905,
              39.729617059
            ],
            [
              8.446538087,
              39.644676221
            ],
            [
              8.446538087,
              39.582835446
            ],
            [
              8.362715406,
              39.468815132
            ],
            [
              8.389819369,
              39.433933953
            ],
            [
              8.362715406,
              39.392053475
            ],
            [
              8.416923332,
              39.322196784
            ],
            [
              8.353680751,
              39.231278686
            ],
            [
              8.416923332,
              39.140242639
            ],
            [
              8.480165913,
              39.066627472
            ],
            [
              8.572630736,
              39.028141157
            ],
            [
              8.561644635,
              38.985456242
            ],
            [
              8.609251072,
              38.95983293
            ],
            [
              8.612913106,
              38.877205882
            ],
            [
              8.649533442,
              38.865801498
            ],
            [
              8.726436149,
              38.93420035
            ],
            [
              8.781366653,
              38.888608436
            ],
            [
              8.781366653,
              38.888608436
            ],
            [
              8.855014788,
              38.877365304
            ]
          ]
        ]
      },
      "properties": {
        "name": "-4000 s/d -238",
        "beginTime": -4000,
        "endTime": -238
      }
    },
    {
      "type": "Feature",
      "properties": {
        "name": "-238 s/d now",
        "beginTime": -238,
        "endTime": 9146
      },
      "geometry": {
        "type": "Polygon",
        "coordinates": [
          [
            [
              9.528933878296527,
              39.21234231124174
            ],
            [
              9.513555005866323,
              39.15273864857167
            ],
            [
              9.44435007993124,
              39.12291786812716
            ],
            [
              9.332853254811994,
              39.20638421932338
            ],
            [
              9.248269456446735,
              39.30760302072332
            ],
            [
              9.171375094295797,
              39.32544999017958
            ],
            [
              9.205977557262571,
              39.37896357795856
            ],
            [
              9.113704322681457,
              39.47993294263958
            ],
            [
              9.167530376187898,
              39.48883497891808
            ],
            [
              9.232890584016587,
              39.53332806571953
            ],
            [
              9.209822275370499,
              39.60445772673302
            ],
            [
              9.171375094295797,
              39.657757076161005
            ],
            [
              9.290561355629421,
              39.63111253430867
            ],
            [
              9.267493046983333,
              39.70805763988372
            ],
            [
              9.205977557262571,
              39.76423255035067
            ],
            [
              9.075257141606755,
              39.82331456417151
            ],
            [
              8.95222616216526,
              39.87349436797547
            ],
            [
              8.852263491368234,
              39.908893319756004
            ],
            [
              8.779213847325252,
              39.96490426745018
            ],
            [
              8.771524411109397,
              40.08267216273467
            ],
            [
              8.806126874077705,
              40.00909105024533
            ],
            [
              8.89840010865882,
              39.96195746577371
            ],
            [
              8.95222616216526,
              39.98552832280828
            ],
            [
              8.89840010865882,
              40.041476524197066
            ],
            [
              8.867642363798439,
              40.091496558715335
            ],
            [
              8.979139188917713,
              40.10914191872217
            ],
            [
              9.029120524316198,
              40.14147985926522
            ],
            [
              9.117549040789356,
              40.16792673130581
            ],
            [
              9.182909248618046,
              40.1767400664223
            ],
            [
              9.24058002023088,
              40.1385406821704
            ],
            [
              9.267493046983333,
              40.08855522049282
            ],
            [
              9.36745571778033,
              40.12090294967584
            ],
            [
              9.298250791843685,
              40.16792673130581
            ],
            [
              9.286716637521437,
              40.211981960802916
            ],
            [
              9.39514798650896,
              40.234410423967034
            ],
            [
              9.425533665572175,
              40.280787886393966
            ],
            [
              9.516690702761764,
              40.3155501198041
            ],
            [
              9.543278171941694,
              40.38502092230104
            ],
            [
              9.478708603932034,
              40.37634098572681
            ],
            [
              9.338174838265815,
              40.35897775766858
            ],
            [
              9.31918378885095,
              40.41394596674314
            ],
            [
              9.436928295220468,
              40.468869309168014
            ],
            [
              9.486305023698577,
              40.49486996545534
            ],
            [
              9.277403480141317,
              40.52952184001006
            ],
            [
              9.292596319672953,
              40.647780602339
            ],
            [
              9.197641072600021,
              40.58435068141188
            ],
            [
              9.060905516815609,
              40.60453946104474
            ],
            [
              9.117878665058726,
              40.693873624110296
            ],
            [
              9.212833912131657,
              40.719786945970384
            ],
            [
              9.216632122014943,
              40.78021214644778
            ],
            [
              9.076098356347217,
              40.77445973126382
            ],
            [
              8.886187862201382,
              40.702512518402415
            ],
            [
              8.897582491851239,
              40.803216825804014
            ],
            [
              8.901380701733018,
              40.90376856502479
            ],
            [
              8.871126548690256,
              41.01244233665935
            ],
            [
              9.03600534772383,
              41.1176300072338
            ],
            [
              9.188201162216359,
              41.15106352194897
            ],
            [
              9.25161608492158,
              41.21310912217467
            ],
            [
              9.37844593033202,
              41.11285239990187
            ],
            [
              9.479909806660402,
              41.10807444485761
            ],
            [
              9.511617268012344,
              40.98851258559799
            ],
            [
              9.505275775742433,
              40.90229355604103
            ],
            [
              9.587715175258637,
              40.83515650108032
            ],
            [
              9.670154574776063,
              40.7439330725845
            ],
            [
              9.708203528399196,
              40.64777305411923
            ],
            [
              9.771618451104388,
              40.53701749748933
            ],
            [
              9.784301435645432,
              40.48880569764691
            ],
            [
              9.695520543858095,
              40.397107798520636
            ],
            [
              9.619422636611887,
              40.33912889812473
            ],
            [
              9.587715175258637,
              40.223021510935354
            ],
            [
              9.619422636611887,
              40.15520013840836
            ],
            [
              9.66381308250493,
              40.111564879024854
            ],
            [
              9.682837559317107,
              40.04848671769096
            ],
            [
              9.65747159023502,
              39.85403371459728
            ],
            [
              9.606739652070814,
              39.51241201022731
            ],
            [
              9.568690698447682,
              39.43898759729734
            ],
            [
              9.568690698447682,
              39.43898759729734
            ],
            [
              9.528933878296527,
              39.21234231124174
            ]
          ]
        ]
      },
      "id": 2
    }
  ]
}