{
  "type": "FeatureCollection",
  "name": "tikuna",
  "features": [
    {
      "type": "Feature",
      "properties": {
        "name": "1 s/d 1700",
        "beginTime": "1",
        "endTime": "1700"
      },
      "geometry": {
        "type": "Polygon",
        "coordinates": [
          [
            [
              -63.210287792729005,
              -3.9005032600071132
            ],
            [
              -62.41703049817254,
              -3.7972682980683885
            ],
            [
              -61.88244406053667,
              -3.883298304621917
            ],
            [
              -61.34785762289991,
              -3.6079723736331033
            ],
            [
              -60.847760632853465,
              -3.539127604592892
            ],
            [
              -60.41664253798581,
              -3.22926425679033
            ],
            [
              -59.951034995528744,
              -3.05707650669153
            ],
            [
              -59.20951187235639,
              -3.1087358045519125
            ],
            [
              -58.6576807109258,
              -3.2120467698040045
            ],
            [
              -58.174828444674034,
              -2.88486111600146
            ],
            [
              -57.76095507360024,
              -2.695394113304289
            ],
            [
              -57.34708170252729,
              -2.316373674403721
            ],
            [
              -56.89871888386493,
              -2.316373674403721
            ],
            [
              -56.329642998639656,
              -2.057891475856721
            ],
            [
              -55.84679073238787,
              -1.6614725255691951
            ],
            [
              -55.31220429475202,
              -1.6614725255691951
            ],
            [
              -54.53619172399024,
              -1.6614725255691951
            ],
            [
              -53.846402772201145,
              -1.3339351539975723
            ],
            [
              -54.29476559086439,
              -0.42008155126575275
            ],
            [
              -55.036288714036715,
              0.631830030435907
            ],
            [
              -55.2777148471626,
              1.4077137587767083
            ],
            [
              -56.036482694129646,
              1.7524765692992617
            ],
            [
              -59.54768921991334,
              1.8072928552587797
            ],
            [
              -60.360088828899066,
              3.0461349704182936
            ],
            [
              -63.36989765527767,
              3.7290614725759212
            ],
            [
              -64.01126576763491,
              2.7045031232187
            ],
            [
              -65.67882285976238,
              0.9523912871797506
            ],
            [
              -66.91880121031923,
              1.1661439988557447
            ],
            [
              -68.2442953091898,
              2.1918786735461424
            ],
            [
              -69.48427365974668,
              2.7899205820497883
            ],
            [
              -71.10907287771754,
              3.5156993503770764
            ],
            [
              -72.7338720956879,
              3.8997140356614324
            ],
            [
              -76.53932289567237,
              4.070331957302301
            ],
            [
              -77.2234488821862,
              3.8143919901376364
            ],
            [
              -77.86481699454293,
              2.7045031232187
            ],
            [
              -77.39448037881466,
              2.063693521829933
            ],
            [
              -76.75311226645796,
              1.4226255657517441
            ],
            [
              -76.11174415410123,
              0.8668863238484477
            ],
            [
              -75.51313391590111,
              0.6103606105391179
            ],
            [
              -74.70073430691592,
              -0.030995955801074615
            ],
            [
              -73.33248233388822,
              -0.4585698030499117
            ],
            [
              -72.81938784400235,
              -0.5440822699546999
            ],
            [
              -71.66492524176023,
              -0.3730563146567647
            ],
            [
              -71.49389374513179,
              0.05451978277380931
            ],
            [
              -70.63873626198897,
              -0.28754199524787794
            ],
            [
              -70.1683996462607,
              -0.9716226164846233
            ],
            [
              -69.44151578558974,
              -1.527340632069837
            ],
            [
              -68.84290554739013,
              -2.0829149708115153
            ],
            [
              -68.07326381256155,
              -1.7837805718414472
            ],
            [
              -66.19191734964832,
              -1.9547209931880047
            ],
            [
              -65.20848624403469,
              -2.3392709929971574
            ],
            [
              -64.3960866350498,
              -3.6629176255832903
            ],
            [
              -64.13953939010712,
              -3.70558713178076
            ],
            [
              -64.13953939010712,
              -3.70558713178076
            ],
            [
              -63.210287792729005,
              -3.9005032600071132
            ]
          ]
        ]
      },
      "id": 1
    },
    {
      "type": "Feature",
      "properties": {
        "name": "1700 s/d 1950",
        "beginTime": "1700",
        "endTime": "1950"
      },
      "geometry": {
        "type": "Polygon",
        "coordinates": [
          [
            [
              -63.52651126417126,
              -4.569036229087359
            ],
            [
              -63.00021088028829,
              -5.05851575856461
            ],
            [
              -62.12304357381814,
              -5.05851575856461
            ],
            [
              -60.298535576360194,
              -4.778856188158599
            ],
            [
              -58.26350742534859,
              -4.009223658857323
            ],
            [
              -56.544259504667096,
              -2.958583021430229
            ],
            [
              -55.94778573626738,
              -2.082272855513196
            ],
            [
              -58.50911427116078,
              -0.25822250553476067
            ],
            [
              -62.8949508035122,
              0.33824842392691323
            ],
            [
              -64.6492854164534,
              0.33824842392691323
            ],
            [
              -66.01766641454687,
              -0.8546654512404501
            ],
            [
              -67.03518049005221,
              -1.275632056901074
            ],
            [
              -67.10535387457071,
              -2.43286690075783
            ],
            [
              -66.894833721017,
              -2.95858302143111
            ],
            [
              -65.2808458771119,
              -3.7991921821264043
            ],
            [
              -65.2808458771119,
              -3.7991921821264043
            ],
            [
              -63.52651126417126,
              -4.569036229087359
            ]
          ]
        ]
      },
      "id": 2
    },
    {
      "type": "Feature",
      "properties": {
        "name": "1950 s/d now",
        "beginTime": 1950,
        "endTime": 9146
      },
      "geometry": {
        "type": "Polygon",
        "coordinates": [
          [
            [
              -72.85378834097112,
              -5.012624477230119
            ],
            [
              -72.0735679749563,
              -5.820423639243373
            ],
            [
              -71.16851235037831,
              -5.8825160400321295
            ],
            [
              -69.45202754514567,
              -5.6651627821911745
            ],
            [
              -68.60938954984965,
              -4.639447093790409
            ],
            [
              -67.48587222278752,
              -2.9891013603117074
            ],
            [
              -68.23488377416174,
              -1.492266334573813
            ],
            [
              -68.92147769625556,
              -0.18166455456005792
            ],
            [
              -70.01378620867634,
              0.3488828339628611
            ],
            [
              -71.69906219926838,
              0.5361300538913838
            ],
            [
              -74.07093211195426,
              0.19284055266520284
            ],
            [
              -74.85115247796911,
              -1.1178583722061717
            ],
            [
              -74.74137271488065,
              -3.735722250629294
            ],
            [
              -73.74269064638167,
              -4.4205735839844635
            ],
            [
              -73.74269064638167,
              -4.4205735839844635
            ],
            [
              -72.85378834097112,
              -5.012624477230119
            ]
          ]
        ]
      },
      "id": 3
    }
  ]
}