{
    "features": [
        {
            "geometry": {
                "coordinates": [
                    [
                        [
                            -59.51767648386676,
                            13.053496584971484
                        ],
                        [
                            -59.48893266288469,
                            13.07250890072595
                        ],
                        [
                            -59.42312584453242,
                            13.143662199783648
                        ],
                        [
                            -59.48397315388409,
                            13.187798044530098
                        ],
                        [
                            -59.58748290625181,
                            13.308585585372214
                        ],
                        [
                            -59.642037505258635,
                            13.294677572886116
                        ],
                        [
                            -59.63905113424749,
                            13.141585023034224
                        ],
                        [
                            -59.60721428614676,
                            13.092558553744226
                        ],
                        [
                            -59.51767648386676,
                            13.053496584971484
                        ]
                    ]
                ],
                "type": "Polygon"
            },
            "properties": {
                "beginTime": 1498,
                "endTime": 9146,
                "id": 0
            },
            "type": "Feature"
        },
        {
            "geometry": {
                "coordinates": [
                    [
                        [
                            -51.64532276255875,
                            4.054857305118645
                        ],
                        [
                            -51.64916904266046,
                            4.051697813693792
                        ],
                        [
                            -51.65520242321218,
                            4.051547361413228
                        ],
                        [
                            -51.71914188469094,
                            4.0670938110636286
                        ],
                        [
                            -51.804466770723074,
                            4.094327599838749
                        ],
                        [
                            -52.51778281795174,
                            4.553753158110339
                        ],
                        [
                            -52.87273434384541,
                            5.016285311424639
                        ],
                        [
                            -53.254989833269384,
                            5.233836000226333
                        ],
                        [
                            -53.63724532269333,
                            5.34258317366789
                        ],
                        [
                            -54.0195008121173,
                            5.369766966784468
                        ],
                        [
                            -54.51097215566239,
                            5.2882119750068455
                        ],
                        [
                            -54.86592368155609,
                            5.451311048499463
                        ],
                        [
                            -55.30278709804061,
                            5.34258317366789
                        ],
                        [
                            -55.794258441585725,
                            5.396949547671014
                        ],
                        [
                            -56.12190600394912,
                            5.451311048499463
                        ],
                        [
                            -56.61337734749422,
                            5.614365827099462
                        ],
                        [
                            -56.96832887338791,
                            5.560019236675231
                        ],
                        [
                            -57.26867247222099,
                            5.396949547671014
                        ],
                        [
                            -57.54171210752384,
                            5.396949547671014
                        ],
                        [
                            -57.89666363341752,
                            5.668707350503183
                        ],
                        [
                            -58.30622308637179,
                            6.04895207464574
                        ],
                        [
                            -58.82499839344715,
                            6.211833260821152
                        ],
                        [
                            -58.87960632050771,
                            6.510316974452223
                        ],
                        [
                            -58.98882217462887,
                            6.700169324189616
                        ],
                        [
                            -59.53490144523453,
                            7.269274926180557
                        ],
                        [
                            -60.32671638761273,
                            7.783560971475197
                        ],
                        [
                            -60.681667913506416,
                            7.999916264504051
                        ],
                        [
                            -60.703161567612895,
                            8.14051433403246
                        ],
                        [
                            -60.741775203143945,
                            8.30770577176439
                        ],
                        [
                            -60.7321217942612,
                            8.446181935686141
                        ],
                        [
                            -60.70798827205426,
                            8.527334571870043
                        ],
                        [
                            -60.69446664641124,
                            8.567716991726257
                        ],
                        [
                            -60.48115443133087,
                            8.5394520771314
                        ],
                        [
                            -60.399402524901355,
                            8.600725221068572
                        ],
                        [
                            -60.33775529474313,
                            8.621024381818742
                        ],
                        [
                            -60.16299926253859,
                            8.610848575026623
                        ],
                        [
                            -60.00877453103549,
                            8.539030196858832
                        ],
                        [
                            -59.978270884279,
                            8.5186739199481
                        ],
                        [
                            -59.83481841963747,
                            8.365598174006053
                        ],
                        [
                            -59.75295985710039,
                            8.333836090000233
                        ],
                        [
                            -59.73237522834513,
                            8.333836090000233
                        ],
                        [
                            -59.73248188445269,
                            8.375569457515837
                        ],
                        [
                            -59.66038235575552,
                            8.354202108961061
                        ],
                        [
                            -59.19828562349787,
                            8.067943389983611
                        ],
                        [
                            -58.80665354295025,
                            7.728186369716326
                        ],
                        [
                            -58.69530456667831,
                            7.5945811993499746
                        ],
                        [
                            -58.62347167825,
                            7.533631139800377
                        ],
                        [
                            -58.50972293955842,
                            7.388807450086674
                        ],
                        [
                            -58.46978022728462,
                            7.318202511605406
                        ],
                        [
                            -58.47964591723208,
                            7.030538338827483
                        ],
                        [
                            -58.58262238906212,
                            6.835097670658314
                        ],
                        [
                            -58.60294037754852,
                            6.691483481288742
                        ],
                        [
                            -58.607919336511124,
                            6.59101644949007
                        ],
                        [
                            -58.612752739442215,
                            6.496329449743342
                        ],
                        [
                            -58.6644809515992,
                            6.384150345163931
                        ],
                        [
                            -58.59318134370859,
                            6.445992342637155
                        ],
                        [
                            -58.562571040844574,
                            6.62024316598594
                        ],
                        [
                            -58.50097766623174,
                            6.723899833666209
                        ],
                        [
                            -58.408506293502796,
                            6.845739936627709
                        ],
                        [
                            -58.29539749145646,
                            6.867076699928148
                        ],
                        [
                            -58.172476327516414,
                            6.8152420637169655
                        ],
                        [
                            -58.069019903202445,
                            6.815189114331332
                        ],
                        [
                            -57.97665571407265,
                            6.774734078031187
                        ],
                        [
                            -57.792583372201825,
                            6.590117454460184
                        ],
                        [
                            -57.607092301445974,
                            6.445462451708124
                        ],
                        [
                            -57.535792693555386,
                            6.322459883966147
                        ],
                        [
                            -57.34068316887729,
                            6.261427401584129
                        ],
                        [
                            -57.227929839140664,
                            6.168360736583168
                        ],
                        [
                            -57.18676058163016,
                            6.086654574556221
                        ],
                        [
                            -57.16633593703621,
                            5.870585484147412
                        ],
                        [
                            -57.197164129003056,
                            5.552773146355747
                        ],
                        [
                            -57.18708054995277,
                            5.542875665176595
                        ],
                        [
                            -57.17694821973648,
                            5.5228653562529075
                        ],
                        [
                            -57.136205586656104,
                            5.634956768797053
                        ],
                        [
                            -57.13607615091679,
                            5.727713474483323
                        ],
                        [
                            -57.10516865936194,
                            5.819605457632662
                        ],
                        [
                            -57.0538670716351,
                            5.932805560628495
                        ],
                        [
                            -56.96139622639777,
                            5.983934283956458
                        ],
                        [
                            -56.460186694609334,
                            5.9341805644885
                        ],
                        [
                            -55.93451122300105,
                            5.788940943893095
                        ],
                        [
                            -55.894406433370925,
                            5.688467201665887
                        ],
                        [
                            -55.894406433370925,
                            5.788866243081372
                        ],
                        [
                            -55.90448752872847,
                            5.881884277320239
                        ],
                        [
                            -55.822308997868774,
                            5.953225798073376
                        ],
                        [
                            -55.64765962177174,
                            5.973698313243602
                        ],
                        [
                            -55.37072703854369,
                            5.9430422938403495
                        ],
                        [
                            -55.14460806530477,
                            5.983985275971563
                        ],
                        [
                            -54.82656757787377,
                            5.983934283956458
                        ],
                        [
                            -54.35376105314819,
                            5.902783787071755
                        ],
                        [
                            -54.13884899645476,
                            5.850162201862915
                        ],
                        [
                            -54.046484807324966,
                            5.798968105078956
                        ],
                        [
                            -54.036299149054884,
                            5.707231545318507
                        ],
                        [
                            -54.036200640695235,
                            5.603887282322191
                        ],
                        [
                            -54.07666848575884,
                            5.491441969908038
                        ],
                        [
                            -54.1482347339183,
                            5.348954483622649
                        ],
                        [
                            -54.07757506267294,
                            5.398701508227617
                        ],
                        [
                            -54.0503036677349,
                            5.478233145671965
                        ],
                        [
                            -53.985897330345175,
                            5.665728650922475
                        ],
                        [
                            -53.91337798511484,
                            5.75843393753226
                        ],
                        [
                            -53.84154509668653,
                            5.768567751328433
                        ],
                        [
                            -53.45134372725083,
                            5.552960179385124
                        ],
                        [
                            -53.26666867704504,
                            5.53263174544459
                        ],
                        [
                            -52.897265248579636,
                            5.4191406735534144
                        ],
                        [
                            -52.76415842636951,
                            5.2673967337373995
                        ],
                        [
                            -52.44648028257149,
                            5.010067608726743
                        ],
                        [
                            -52.281391907224794,
                            4.9368152007410515
                        ],
                        [
                            -52.28143288364271,
                            4.864923529818142
                        ],
                        [
                            -52.32233550088438,
                            4.763057856917527
                        ],
                        [
                            -52.220052293753355,
                            4.85493424982333
                        ],
                        [
                            -52.055668057333214,
                            4.711899066393045
                        ],
                        [
                            -52.004233660145815,
                            4.639119570513245
                        ],
                        [
                            -51.952648084412445,
                            4.505780946616355
                        ],
                        [
                            -51.97351670117424,
                            4.423930083081586
                        ],
                        [
                            -51.99410132992949,
                            4.372728202290915
                        ],
                        [
                            -51.99410132992949,
                            4.341675718148892
                        ],
                        [
                            -51.9538547605228,
                            4.393451119516442
                        ],
                        [
                            -51.92248175371628,
                            4.424195919574387
                        ],
                        [
                            -51.91237526922966,
                            4.516531827474211
                        ],
                        [
                            -51.87127286422102,
                            4.629068125335905
                        ],
                        [
                            -51.8197719221551,
                            4.628914411811081
                        ],
                        [
                            -51.778434220981254,
                            4.557504000162993
                        ],
                        [
                            -51.696078576450155,
                            4.280953961361334
                        ],
                        [
                            -51.665600518705794,
                            4.218516729514064
                        ],
                        [
                            -51.64494567627426,
                            4.1263186746102605
                        ],
                        [
                            -51.65530820432816,
                            4.085444805415932
                        ],
                        [
                            -51.64532276255875,
                            4.054857305118645
                        ]
                    ]
                ],
                "type": "Polygon"
            },
            "properties": {
                "beginTime": 1701,
                "endTime": 9146,
                "id": 1
            },
            "type": "Feature"
        }
    ],
    "name": "lokono",
    "type": "FeatureCollection"
}
