{
  "type": "FeatureCollection",
  "name": "russian_siberian",
  "features": [
    {
      "id": 1,
      "type": "Feature",
      "geometry": {
        "type": "Polygon",
        "coordinates": [
          [
            [
              102.996615295,
              51.98793298
            ],
            [
              102.838060558,
              51.575955195
            ],
            [
              102.9331934,
              51.259538687
            ],
            [
              103.884521821,
              51.080590997
            ],
            [
              105.279803504,
              51.040730514
            ],
            [
              106.64337424,
              51.516793899
            ],
            [
              107.499569819,
              51.948859005
            ],
            [
              108.92656245,
              52.627744593
            ],
            [
              110.670664554,
              53.182390582
            ],
            [
              111.304883501,
              53.654848917
            ],
            [
              111.812258659,
              54.473674852
            ],
            [
              112.002524343,
              55.671836519
            ],
            [
              112.256211922,
              56.027860879
            ],
            [
              113.017274658,
              56.310337244
            ],
            [
              112.383055711,
              56.503336342
            ],
            [
              110.364799109,
              56.136539282
            ],
            [
              109.603736372,
              55.994920553
            ],
            [
              108.493853215,
              55.745834061
            ],
            [
              107.859634268,
              55.079815847
            ],
            [
              107.796212373,
              54.623425382
            ],
            [
              106.971727742,
              54.161856939
            ],
            [
              106.083821216,
              53.525763272
            ],
            [
              104.24458627,
              52.860830159
            ],
            [
              103.515234481,
              52.514839705
            ],
            [
              103.515234481,
              52.514839705
            ],
            [
              102.996615295,
              51.98793298
            ]
          ]
        ]
      },
      "properties": {
        "name": "-200 s/d 600",
        "beginTime": -200,
        "endTime": 600
      }
    },
    {
      "id": 3,
      "type": "Feature",
      "geometry": {
        "type": "Polygon",
        "coordinates": [
          [
            [
              109.963048566,
              55.786912198
            ],
            [
              110.636806349,
              56.798574115
            ],
            [
              112.301384401,
              56.993386544
            ],
            [
              114.124493696,
              56.493509087
            ],
            [
              115.392743641,
              57.079644049
            ],
            [
              116.581727964,
              57.40132968
            ],
            [
              117.532915422,
              58.203769937
            ],
            [
              117.651813854,
              59.008895874
            ],
            [
              117.017688882,
              59.79561689
            ],
            [
              116.106134235,
              60.388435805
            ],
            [
              114.560454615,
              60.251064179
            ],
            [
              112.658079698,
              59.354072291
            ],
            [
              109.371759715,
              59.34942966
            ],
            [
              110.243681552,
              61.119742362
            ],
            [
              109.728455012,
              61.556948948
            ],
            [
              109.719603382,
              62.43000984
            ],
            [
              108.572177711,
              63.714146251
            ],
            [
              107.983843169,
              64.059412466
            ],
            [
              106.545692065,
              63.829706854
            ],
            [
              106.153469037,
              63.010781192
            ],
            [
              106.284210046,
              61.892279623
            ],
            [
              104.584576924,
              61.144148783
            ],
            [
              104.780688438,
              59.394007005
            ],
            [
              103.015684811,
              59.394007005
            ],
            [
              101.839015726,
              58.857294578
            ],
            [
              101.05456967,
              58.070942978
            ],
            [
              100.466235127,
              57.408001892
            ],
            [
              98.570490491,
              57.828114715
            ],
            [
              97.655303425,
              57.548579418
            ],
            [
              97.393821406,
              56.553121139
            ],
            [
              96.740116359,
              55.159057431
            ],
            [
              96.47863434,
              54.708380485
            ],
            [
              96.303495218,
              53.611037761
            ],
            [
              98.72264252,
              52.984530867
            ],
            [
              101.706257526,
              52.44721086
            ],
            [
              103.319022394,
              51.903255537
            ],
            [
              103.290665278,
              51.541923174
            ],
            [
              104.672207329,
              51.261310474
            ],
            [
              106.246522691,
              51.979412889
            ],
            [
              108.045740247,
              52.68618591
            ],
            [
              109.202380104,
              53.515641141
            ],
            [
              109.909215572,
              55.291910078
            ],
            [
              109.909215572,
              55.291910078
            ],
            [
              109.963048566,
              55.786912198
            ]
          ]
        ]
      },
      "properties": {
        "name": "600 s/d 1700",
        "beginTime": 600,
        "endTime": 1700
      }
    },
    {
      "type": "Feature",
      "properties": {
        "name": "1700 s/d 9146",
        "beginTime": 1700,
        "endTime": 9146
      },
      "geometry": {
        "type": "Polygon",
        "coordinates": [
          [
            [
              69.06523305539653,
              66.77626693606376
            ],
            [
              68.13795485120855,
              66.58399005327706
            ],
            [
              66.6366472825251,
              66.60153167641619
            ],
            [
              65.7976812882608,
              65.92616571781781
            ],
            [
              65.26780802872545,
              64.97224605652477
            ],
            [
              65.93014960314466,
              64.09902355783416
            ],
            [
              65.1353397138416,
              62.93750801913865
            ],
            [
              67.65223769663444,
              61.81154760333715
            ],
            [
              69.29135236295355,
              60.93749731500586
            ],
            [
              69.9902919960546,
              60.23184574190324
            ],
            [
              69.07086057650534,
              59.342152324622674
            ],
            [
              68.25751739767335,
              58.28009742642175
            ],
            [
              69.17694881722258,
              57.943846767039474
            ],
            [
              72.43032153255234,
              57.56650340240165
            ],
            [
              74.86146501427811,
              56.699215784679666
            ],
            [
              74.67001329470997,
              55.90257533545562
            ],
            [
              73.13839953816503,
              55.362213034887134
            ],
            [
              74.62215036481794,
              54.28694698606944
            ],
            [
              75.86658654201074,
              53.096726479739374
            ],
            [
              78.71881923219667,
              50.60490094407868
            ],
            [
              81.63399725493372,
              50.19195644821116
            ],
            [
              83.5126675362531,
              49.56578257613751
            ],
            [
              85.32655608373551,
              49.0165189090049
            ],
            [
              88.43607930798834,
              49.14381538890348
            ],
            [
              91.54560253224116,
              50.48139525622091
            ],
            [
              96.40423257013776,
              50.52259975995315
            ],
            [
              98.15333938377995,
              50.769072304612735
            ],
            [
              99.70810099590796,
              52.22086378856417
            ],
            [
              103.46544155854679,
              50.769072304612735
            ],
            [
              105.34411183986623,
              50.233412841177596
            ],
            [
              108.25928986260487,
              49.94246127500264
            ],
            [
              113.25087226939695,
              49.691667258090746
            ],
            [
              115.84214162294097,
              50.27483322066951
            ],
            [
              118.17428404113224,
              49.691667258090746
            ],
            [
              120.18251779012888,
              51.13635976263549
            ],
            [
              120.57120819316043,
              52.85131760557181
            ],
            [
              123.29204101438171,
              53.39555923600369
            ],
            [
              126.27200077095898,
              52.41885343003236
            ],
            [
              127.43807198005373,
              50.769072304618334
            ],
            [
              128.9928335921802,
              51.862247052555915
            ],
            [
              130.0293413335978,
              49.775409700769075
            ],
            [
              128.65258013825087,
              55.38302413891611
            ],
            [
              136.0177902514364,
              55.18327972346901
            ],
            [
              141.98010320020393,
              59.03579753556167
            ],
            [
              145.66270825679777,
              59.61727125105827
            ],
            [
              148.6438647311815,
              59.439415214515236
            ],
            [
              151.09893476890932,
              59.61727125105827
            ],
            [
              152.11281734678028,
              60.22744590341725
            ],
            [
              153.5572954216343,
              60.528064798931496
            ],
            [
              153.5572954216343,
              62.52089466573622
            ],
            [
              151.5874604501193,
              63.196936581220655
            ],
            [
              149.69894924905975,
              65.01537463554911
            ],
            [
              146.6133999474638,
              68.38908450821873
            ],
            [
              131.15666837090788,
              70.8681798200775
            ],
            [
              122.03035136816419,
              72.70390326329323
            ],
            [
              110.93079936904803,
              73.27347961639003
            ],
            [
              106.60904647961627,
              72.94461868532068
            ],
            [
              104.55106891321952,
              72.7626041467436
            ],
            [
              106.61993399985414,
              73.40889801917484
            ],
            [
              112.19765773735605,
              75.05227287767076
            ],
            [
              110.80539199650394,
              76.54832137216283
            ],
            [
              106.88911788293984,
              76.52068675706491
            ],
            [
              103.21019371565092,
              76.57590037483587
            ],
            [
              99.17524462894852,
              75.89843963404562
            ],
            [
              93.59752089144672,
              75.54725627263815
            ],
            [
              90.15594667043439,
              75.0962239984606
            ],
            [
              87.54509726139162,
              73.62566580646183
            ],
            [
              82.7980983358579,
              72.90824509986118
            ],
            [
              83.86617309410269,
              71.83024235094715
            ],
            [
              83.86617309410269,
              70.60803145631013
            ],
            [
              80.42459887309184,
              70.95956123561939
            ],
            [
              76.15229984011137,
              70.76503106802426
            ],
            [
              77.3390495714944,
              69.80438754628588
            ],
            [
              77.81374946404759,
              68.58222910166148
            ],
            [
              78.28844935660084,
              67.56312147547729
            ],
            [
              74.84687513559001,
              67.24393019037171
            ],
            [
              71.64265086085425,
              66.78047813064364
            ],
            [
              71.64265086085425,
              66.78047813064364
            ],
            [
              69.06523305539653,
              66.77626693606376
            ]
          ]
        ]
      },
      "id": 4
    }
  ]
}