{
  "type": "FeatureCollection",
  "name": "sami",
  "features": [
    {
      "type": "Feature",
      "properties": {
        "name": "-1500 s/d 1",
        "beginTime": -1500,
        "endTime": 1
      },
      "geometry": {
        "type": "Polygon",
        "coordinates": [
          [
            [
              23.73804256619681,
              62.497230436412934
            ],
            [
              22.729506353038488,
              62.005313129237095
            ],
            [
              22.20122547947932,
              61.50532062650126
            ],
            [
              22.29727654739918,
              61.02043586189512
            ],
            [
              23.06568509075791,
              60.73998584454014
            ],
            [
              24.986706449154724,
              60.4333751811981
            ],
            [
              26.85970227359283,
              60.763450882657025
            ],
            [
              28.15639169051059,
              60.85713955483615
            ],
            [
              29.020851301789207,
              60.97386521187809
            ],
            [
              29.98136198098763,
              61.55111065108562
            ],
            [
              30.6537194564265,
              62.3192797741948
            ],
            [
              31.518179067706257,
              62.806107598111225
            ],
            [
              30.789461048278355,
              63.4764861918371
            ],
            [
              29.18938702476106,
              63.99327075579714
            ],
            [
              28.276901879522654,
              63.99327075579714
            ],
            [
              26.93218692864491,
              63.951122860562776
            ],
            [
              25.155242172126634,
              63.866636414779435
            ],
            [
              24.2907825608481,
              63.224829617169576
            ],
            [
              24.2907825608481,
              63.224829617169576
            ],
            [
              23.73804256619681,
              62.497230436412934
            ]
          ]
        ]
      },
      "id": 1
    },
    {
      "type": "Feature",
      "properties": {
        "name": "1 s/d now",
        "beginTime": 1,
        "endTime": 9146
      },
      "geometry": {
        "type": "Polygon",
        "coordinates": [
          [
            [
              32.66643547227113,
              67.12826211222526
            ],
            [
              32.99144455189355,
              66.92530130538003
            ],
            [
              34.09647542260976,
              66.61766562225534
            ],
            [
              35.78652263664634,
              66.43642759955793
            ],
            [
              37.47656985068292,
              66.17521730698252
            ],
            [
              39.29662069657007,
              66.12264897778635
            ],
            [
              40.53165519913526,
              66.41042854622756
            ],
            [
              41.636686069851464,
              67.15351313578876
            ],
            [
              41.116671542455606,
              67.65302270829883
            ],
            [
              39.62162977619249,
              68.14215906067682
            ],
            [
              37.99658437807881,
              68.59739481443495
            ],
            [
              35.33150992517494,
              69.2748418263804
            ],
            [
              33.8364681589118,
              69.3895532042352
            ],
            [
              32.79643910412008,
              69.54912926134486
            ],
            [
              32.016417313026324,
              69.6171564196969
            ],
            [
              32.95202158408162,
              69.62319832114036
            ],
            [
              32.73651739886711,
              69.8347440859782
            ],
            [
              31.730831201198413,
              69.9828016575463
            ],
            [
              31.51532701598387,
              69.77274414165183
            ],
            [
              28.713772608195086,
              70.16640794514092
            ],
            [
              30.150467176291926,
              70.06868659762961
            ],
            [
              31.048401281352426,
              70.32422505537997
            ],
            [
              29.791293534267737,
              70.74314363373239
            ],
            [
              27.42074749690707,
              71.11863586471026
            ],
            [
              25.193870916357014,
              71.15347447708018
            ],
            [
              22.42823387276971,
              70.71943825492292
            ],
            [
              18.838380484125423,
              70.20817632391174
            ],
            [
              18.172618954165017,
              69.7523570200349
            ],
            [
              17.136989907559922,
              69.59819385285911
            ],
            [
              15.583546337651342,
              69.31263863121649
            ],
            [
              14.03010276774367,
              68.75684560251187
            ],
            [
              12.772553211151717,
              68.15932517871735
            ],
            [
              12.624606204493858,
              67.7987644624927
            ],
            [
              14.252023277730416,
              67.48926710191265
            ],
            [
              15.279736765371723,
              67.27300557952145
            ],
            [
              17.14463272514149,
              67.14400215074954
            ],
            [
              18.743114976371942,
              67.01430594097499
            ],
            [
              20.941028071814742,
              66.85775172058553
            ],
            [
              23.538561730064345,
              67.52894629182364
            ],
            [
              24.537613137084207,
              67.5798055084505
            ],
            [
              25.536664544103303,
              67.32441365564003
            ],
            [
              26.80212965966072,
              67.24726016981123
            ],
            [
              29.8658873078534,
              67.19568648512376
            ],
            [
              30.864938714872437,
              67.14400215074954
            ],
            [
              30.864938714872437,
              67.14400215074954
            ],
            [
              32.66643547227113,
              67.12826211222526
            ]
          ]
        ]
      },
      "id": 2
    }
  ]
}