{
  "type": "FeatureCollection",
  "name": "seri",
  "features": [
    {
      "type": "Feature",
      "properties": {
        "name": "1000 s/d 1930 San Esteban Island",
        "beginTime": 1000,
        "endTime": 1930
      },
      "geometry": {
        "type": "Polygon",
        "coordinates": [
          [
            [
              -112.54755548471641,
              28.73014383428901
            ],
            [
              -112.54779744765501,
              28.728446414888865
            ],
            [
              -112.5463456700223,
              28.72377836941382
            ],
            [
              -112.54610370708372,
              28.718261319676216
            ],
            [
              -112.54150641124741,
              28.712531767629287
            ],
            [
              -112.54223230006356,
              28.707863011676906
            ],
            [
              -112.54658763296128,
              28.70128395646246
            ],
            [
              -112.54416800357383,
              28.69597796546917
            ],
            [
              -112.54489389239,
              28.6927942417572
            ],
            [
              -112.54731352177745,
              28.691096216184874
            ],
            [
              -112.54561978120614,
              28.68727555795124
            ],
            [
              -112.54658763296128,
              28.685577442874234
            ],
            [
              -112.5494911882263,
              28.680482932418172
            ],
            [
              -112.54900726234874,
              28.678784707195973
            ],
            [
              -112.5531366025725,
              28.671938745856693
            ],
            [
              -112.55749371971167,
              28.671747603037957
            ],
            [
              -112.56119726928038,
              28.670600738799607
            ],
            [
              -112.56511867470591,
              28.66964500901257
            ],
            [
              -112.57100078284421,
              28.66773352328653
            ],
            [
              -112.57448647655575,
              28.66773352328653
            ],
            [
              -112.58298285497762,
              28.66964500901257
            ],
            [
              -112.58755782797397,
              28.670027301973334
            ],
            [
              -112.58930067482956,
              28.671938745856693
            ],
            [
              -112.59235065682712,
              28.671747603037957
            ],
            [
              -112.59757919739462,
              28.671556459869876
            ],
            [
              -112.60069466556372,
              28.670651893071863
            ],
            [
              -112.60605777696318,
              28.668455946171406
            ],
            [
              -112.60552146582332,
              28.670808744661088
            ],
            [
              -112.6026611397436,
              28.673788880239698
            ],
            [
              -112.60248236936374,
              28.678023663923682
            ],
            [
              -112.6033762212636,
              28.679435220442215
            ],
            [
              -112.60355499164346,
              28.6816309372156
            ],
            [
              -112.60427007316346,
              28.683042445119654
            ],
            [
              -112.60605777696318,
              28.688217811333516
            ],
            [
              -112.60748794000321,
              28.690726987725114
            ],
            [
              -112.60999072532293,
              28.69307928597658
            ],
            [
              -112.61070580684293,
              28.695431531371455
            ],
            [
              -112.61106334760294,
              28.699038204977015
            ],
            [
              -112.61177842912267,
              28.70295836140565
            ],
            [
              -112.61428121444239,
              28.70625117931523
            ],
            [
              -112.61356613292266,
              28.70828953847024
            ],
            [
              -112.61249351064266,
              28.70954389359541
            ],
            [
              -112.61249351064266,
              28.712052558724395
            ],
            [
              -112.61213596988266,
              28.714247591358387
            ],
            [
              -112.61106334760294,
              28.71597222753968
            ],
            [
              -112.61106334760294,
              28.718010397270078
            ],
            [
              -112.61201996133157,
              28.719293395200097
            ],
            [
              -112.61317934273416,
              28.720055961978005
            ],
            [
              -112.61115042527986,
              28.721326894250325
            ],
            [
              -112.61332426540959,
              28.72424997985027
            ],
            [
              -112.61332426540959,
              28.7267917269846
            ],
            [
              -112.61173011598115,
              28.72780840853484
            ],
            [
              -112.61086057992898,
              28.72691881271922
            ],
            [
              -112.60854181712429,
              28.727045898299394
            ],
            [
              -112.60723751304627,
              28.728443829482146
            ],
            [
              -112.60506367291701,
              28.727681323881697
            ],
            [
              -112.60086091533299,
              28.72895216345954
            ],
            [
              -112.59680308042442,
              28.731747956143295
            ],
            [
              -112.59375970424298,
              28.73251043207776
            ],
            [
              -112.58477449837366,
              28.732002115405663
            ],
            [
              -112.57680375123196,
              28.73123963576279
            ],
            [
              -112.57405022040095,
              28.729968823996373
            ],
            [
              -112.5691228494402,
              28.729968823996373
            ],
            [
              -112.56289117440237,
              28.731366716089696
            ],
            [
              -112.5572391900649,
              28.73530612957896
            ],
            [
              -112.55419581388347,
              28.73301874627677
            ],
            [
              -112.55318135515633,
              28.731747956143295
            ],
            [
              -112.55231181910463,
              28.729714659789636
            ],
            [
              -112.55231181910463,
              28.729714659789636
            ],
            [
              -112.54755548471641,
              28.73014383428901
            ]
          ]
        ]
      },
      "id": 1
    },
    {
      "type": "Feature",
      "properties": {
        "name": "1000 s/d 1930 Tiburon",
        "beginTime": 1000,
        "endTime": 1930
      },
      "geometry": {
        "type": "Polygon",
        "coordinates": [
          [
            [
              -112.30892697317283,
              28.748064220329965
            ],
            [
              -112.30272459195129,
              28.751689420315216
            ],
            [
              -112.29290415501671,
              28.759845660155975
            ],
            [
              -112.27429701135169,
              28.770719655401365
            ],
            [
              -112.26757776502788,
              28.76482971527504
            ],
            [
              -112.25362240727921,
              28.768454333153855
            ],
            [
              -112.25362240727921,
              28.774797111515596
            ],
            [
              -112.26240911401007,
              28.78159251758474
            ],
            [
              -112.27326328114796,
              28.78159251758474
            ],
            [
              -112.26861149523161,
              28.79201128036256
            ],
            [
              -112.27274641604609,
              28.794276091037176
            ],
            [
              -112.27119582074093,
              28.801976079273302
            ],
            [
              -112.27533074155542,
              28.80514649731731
            ],
            [
              -112.27222955094423,
              28.813751431453042
            ],
            [
              -112.27378014624983,
              28.817374348971995
            ],
            [
              -112.25827419319558,
              28.84046748513326
            ],
            [
              -112.25517300258439,
              28.858123484704237
            ],
            [
              -112.23772944178079,
              28.87201040989204
            ],
            [
              -112.24155493715413,
              28.889875477706212
            ],
            [
              -112.22880328590942,
              28.903830423651655
            ],
            [
              -112.21350130441546,
              28.94568400128351
            ],
            [
              -112.21350130441546,
              28.957957845223234
            ],
            [
              -112.2095526585217,
              28.964628019441392
            ],
            [
              -112.20710176612657,
              28.966571302016092
            ],
            [
              -112.19591956957245,
              28.97199889800983
            ],
            [
              -112.18849030199918,
              28.976689183771143
            ],
            [
              -112.18879666354839,
              28.97715820065345
            ],
            [
              -112.19523025608662,
              28.9795032531747
            ],
            [
              -112.19837046196807,
              28.97722520289176
            ],
            [
              -112.20733153728835,
              28.968916594468055
            ],
            [
              -112.21169718936761,
              28.962751711994102
            ],
            [
              -112.2134587682769,
              28.96000420044666
            ],
            [
              -112.21598625105993,
              28.96027225356383
            ],
            [
              -112.21613943183429,
              28.965298121002633
            ],
            [
              -112.21491398563649,
              28.965432140794334
            ],
            [
              -112.21457474822915,
              28.967997619008614
            ],
            [
              -112.21314890498847,
              28.982030553156847
            ],
            [
              -112.21065367931709,
              28.986395966705288
            ],
            [
              -112.20958429688636,
              28.99543802289918
            ],
            [
              -112.19390002123754,
              29.005726297362628
            ],
            [
              -112.19354356042729,
              29.02131264044921
            ],
            [
              -112.20196559597186,
              29.025699035050778
            ],
            [
              -112.20997737678303,
              29.049048122360716
            ],
            [
              -112.22511074053807,
              29.065389339770732
            ],
            [
              -112.22199504800032,
              29.06966875446882
            ],
            [
              -112.23134212561354,
              29.084450819896347
            ],
            [
              -112.23267742241558,
              29.093007888376178
            ],
            [
              -112.23846370855703,
              29.099230764300216
            ],
            [
              -112.23935390642508,
              29.105842157822877
            ],
            [
              -112.24870098403828,
              29.110897642784863
            ],
            [
              -112.25804806165185,
              29.124118506022498
            ],
            [
              -112.27318142540689,
              29.13539378173543
            ],
            [
              -112.27325125857163,
              29.145966235906698
            ],
            [
              -112.26996406418557,
              29.160320111339956
            ],
            [
              -112.2754427214956,
              29.166061099820368
            ],
            [
              -112.26338967541344,
              29.17913659733817
            ],
            [
              -112.27032930800628,
              29.182006605519405
            ],
            [
              -112.25900674956554,
              29.193485835349847
            ],
            [
              -112.27069455182698,
              29.196355442059073
            ],
            [
              -112.27069455182698,
              29.20655783769962
            ],
            [
              -112.27872991588166,
              29.20655783769962
            ],
            [
              -112.28092137880562,
              29.21516531915215
            ],
            [
              -112.27859843830332,
              29.219198176451627
            ],
            [
              -112.28147879107881,
              29.22590156387595
            ],
            [
              -112.28411911445649,
              29.225273139942345
            ],
            [
              -112.28147879107881,
              29.22003612387175
            ],
            [
              -112.29300020218109,
              29.221083548507764
            ],
            [
              -112.2857993202422,
              29.22380680243441
            ],
            [
              -112.28219887927256,
              29.23009095821743
            ],
            [
              -112.2771582619154,
              29.231557205743755
            ],
            [
              -112.27355782094615,
              29.2395164687711
            ],
            [
              -112.26875723298676,
              29.24391474335893
            ],
            [
              -112.26635693900727,
              29.243076991343642
            ],
            [
              -112.26419667442556,
              29.245590226814954
            ],
            [
              -112.27067746817029,
              29.245590226814954
            ],
            [
              -112.28027864408907,
              29.23721253522018
            ],
            [
              -112.28315899686453,
              29.231766667962205
            ],
            [
              -112.28747952602792,
              29.232813972625323
            ],
            [
              -112.29756076074229,
              29.22422575815078
            ],
            [
              -112.31148246582445,
              29.225273139942345
            ],
            [
              -112.31676311257944,
              29.221083548507764
            ],
            [
              -112.32588422970221,
              29.221502515362886
            ],
            [
              -112.33188496465134,
              29.220664579938358
            ],
            [
              -112.34028599357995,
              29.224016280506802
            ],
            [
              -112.34339619765734,
              29.22144355353234
            ],
            [
              -112.36115024207892,
              29.22118954248603
            ],
            [
              -112.37366538814656,
              29.212425775676863
            ],
            [
              -112.39985987991572,
              29.190830688162862
            ],
            [
              -112.4078816286995,
              29.187142203044488
            ],
            [
              -112.41325369937779,
              29.186455861170217
            ],
            [
              -112.4173155089155,
              29.188171707244692
            ],
            [
              -112.4174465350293,
              29.189315588682078
            ],
            [
              -112.42321168405026,
              29.189315588682078
            ],
            [
              -112.42699838705641,
              29.19114577244548
            ],
            [
              -112.43210768523137,
              29.196102344522814
            ],
            [
              -112.43361934296126,
              29.20039098593371
            ],
            [
              -112.43673713702985,
              29.200885817629953
            ],
            [
              -112.43985493109845,
              29.19849410897399
            ],
            [
              -112.44335063959932,
              29.197009572089115
            ],
            [
              -112.44854696304697,
              29.199978624363396
            ],
            [
              -112.45024757799344,
              29.20055593009785
            ],
            [
              -112.45421567953511,
              29.19750442010607
            ],
            [
              -112.46386472687131,
              29.18733954123988
            ],
            [
              -112.46866334898733,
              29.177796710983102
            ],
            [
              -112.47136366826665,
              29.17255953038908
            ],
            [
              -112.47903304627988,
              29.167847027740137
            ],
            [
              -112.47740989165719,
              29.156126006120175
            ],
            [
              -112.47916113994889,
              29.145759840680824
            ],
            [
              -112.47838280737473,
              29.14117120399233
            ],
            [
              -112.48927946341178,
              29.130973500020474
            ],
            [
              -112.49005779598592,
              29.12689413516722
            ],
            [
              -112.49181727821858,
              29.11821148557739
            ],
            [
              -112.48866373991791,
              29.11407892274147
            ],
            [
              -112.49041570564066,
              29.106884806258662
            ],
            [
              -112.49442663369821,
              29.09579686352629
            ],
            [
              -112.4935621738687,
              29.08956485737106
            ],
            [
              -112.49550720848569,
              29.070677687387516
            ],
            [
              -112.50825799096982,
              29.063310752687542
            ],
            [
              -112.50267309381434,
              29.05093301361316
            ],
            [
              -112.50754101718928,
              29.03887510969149
            ],
            [
              -112.50226743353304,
              29.02717050252798
            ],
            [
              -112.51078629943936,
              29.01440032671772
            ],
            [
              -112.50267309381434,
              29.00411209244666
            ],
            [
              -112.50186177325175,
              28.99275836936191
            ],
            [
              -112.49374856762672,
              28.985661659233614
            ],
            [
              -112.49050328537665,
              28.976435208033692
            ],
            [
              -112.49537120875158,
              28.969692281015725
            ],
            [
              -112.48888064425144,
              28.96010947106562
            ],
            [
              -112.49172026622021,
              28.949460864110222
            ],
            [
              -112.50334235602662,
              28.94077987013236
            ],
            [
              -112.50717700003015,
              28.92802714077098
            ],
            [
              -112.51714707443922,
              28.916279817805318
            ],
            [
              -112.52328250484474,
              28.914265857395534
            ],
            [
              -112.5240494336455,
              28.91023781926883
            ],
            [
              -112.54935808406809,
              28.895467008185648
            ],
            [
              -112.5654635888827,
              28.892109712492882
            ],
            [
              -112.57274941248937,
              28.883044471863343
            ],
            [
              -112.58578720210089,
              28.875993182082425
            ],
            [
              -112.57466673449099,
              28.868269791749526
            ],
            [
              -112.56239587367992,
              28.869277223044108
            ],
            [
              -112.54859115526763,
              28.85718740302758
            ],
            [
              -112.51714707443922,
              28.840393654056257
            ],
            [
              -112.50449274922777,
              28.837370491298756
            ],
            [
              -112.49789569220414,
              28.82959786758036
            ],
            [
              -112.49478708513034,
              28.82088288150227
            ],
            [
              -112.48173093541976,
              28.821155235859578
            ],
            [
              -112.47178339278301,
              28.818976381057666
            ],
            [
              -112.46805306429383,
              28.811077650259975
            ],
            [
              -112.46618790004976,
              28.804267918839344
            ],
            [
              -112.45841638236475,
              28.79909222530557
            ],
            [
              -112.43945387921326,
              28.80072668261198
            ],
            [
              -112.42359998313606,
              28.79582323379664
            ],
            [
              -112.41334157979162,
              28.7993646366361
            ],
            [
              -112.40588092281429,
              28.796912909024527
            ],
            [
              -112.3997910604683,
              28.78832699481316
            ],
            [
              -112.39412705218716,
              28.78501763289556
            ],
            [
              -112.38940704528562,
              28.777295380017136
            ],
            [
              -112.37776436159581,
              28.773158223660985
            ],
            [
              -112.36832434779326,
              28.77426148139743
            ],
            [
              -112.3651776765254,
              28.770400028282154
            ],
            [
              -112.36140167100449,
              28.759366517728765
            ],
            [
              -112.35573766272285,
              28.758814811585196
            ],
            [
              -112.35070298869478,
              28.763504220871056
            ],
            [
              -112.34315097765293,
              28.764883418803464
            ],
            [
              -112.33654296799068,
              28.76378006191584
            ],
            [
              -112.32804695556872,
              28.7612974662719
            ],
            [
              -112.32269761441363,
              28.757435533469348
            ],
            [
              -112.32427095004729,
              28.754952786943406
            ],
            [
              -112.32175361303352,
              28.75274585158131
            ],
            [
              -112.31860694176567,
              28.75329758979423
            ],
            [
              -112.31483093624475,
              28.752194110452265
            ],
            [
              -112.3154602704983,
              28.747504193164644
            ],
            [
              -112.31136959785034,
              28.745572989539042
            ],
            [
              -112.31136959785034,
              28.745572989539042
            ],
            [
              -112.30892697317283,
              28.748064220329965
            ]
          ]
        ]
      },
      "id": 2
    },
    {
      "type": "Feature",
      "properties": {
        "name": "1000 s/d 1930 Sinora",
        "beginTime": 1000,
        "endTime": 1930
      },
      "geometry": {
        "type": "Polygon",
        "coordinates": [
          [
            [
              -114.86566815420657,
              31.894309965755923
            ],
            [
              -114.99005650016989,
              31.959276995942943
            ],
            [
              -114.99005650016989,
              32.21868535006533
            ],
            [
              -115.05703484030397,
              32.23487390017465
            ],
            [
              -114.9517831629504,
              32.428911346680394
            ],
            [
              -114.85609981990171,
              32.49349798448533
            ],
            [
              -110.94980952926991,
              31.345418172715753
            ],
            [
              -108.79008885107856,
              31.335248646762892
            ],
            [
              -108.86701907087773,
              31.17083264456228
            ],
            [
              -108.63622841148023,
              31.006130737194283
            ],
            [
              -108.98241440057647,
              30.85765528731062
            ],
            [
              -108.86701907087773,
              30.62623607103454
            ],
            [
              -108.52083308178149,
              30.3444815437648
            ],
            [
              -108.59776330158066,
              30.07855766900701
            ],
            [
              -108.57853074663088,
              29.811917034372684
            ],
            [
              -108.67469352137982,
              29.37710726127233
            ],
            [
              -108.52083308178146,
              28.526701808800638
            ],
            [
              -108.61753685871898,
              28.302871513548084
            ],
            [
              -109.08178880110735,
              28.15413061221612
            ],
            [
              -108.82856046889552,
              27.78137460472901
            ],
            [
              -108.61753685871898,
              27.407336613771662
            ],
            [
              -108.42761560956009,
              26.99442796827168
            ],
            [
              -108.53312741464838,
              26.8062383173
            ],
            [
              -108.76525338584256,
              26.485598768681882
            ],
            [
              -109.09407442084678,
              26.336092803262048
            ],
            [
              -109.24553269655053,
              26.352544723257196
            ],
            [
              -109.25471198598713,
              26.4758594712235
            ],
            [
              -109.42452884056405,
              26.652380231541542
            ],
            [
              -109.53468031380312,
              26.713893187803095
            ],
            [
              -109.6586007211971,
              26.668786931442796
            ],
            [
              -109.8146486416196,
              26.722092406726915
            ],
            [
              -109.90644153598552,
              26.914603747930954
            ],
            [
              -109.93856904901357,
              27.074098412911
            ],
            [
              -110.09002732471731,
              27.090444041805256
            ],
            [
              -110.31950956063208,
              27.155802698251676
            ],
            [
              -110.43265347588374,
              27.242912048227566
            ],
            [
              -110.65487676650801,
              27.331443939671146
            ],
            [
              -110.61041999185862,
              27.361655517578413
            ],
            [
              -110.56229257478938,
              27.32548239542139
            ],
            [
              -110.50490988520701,
              27.302456989288274
            ],
            [
              -110.55690535489839,
              27.399693123881576
            ],
            [
              -110.54530318096467,
              27.466626846310277
            ],
            [
              -110.60911513760016,
              27.543807583085396
            ],
            [
              -110.62071731153391,
              27.62093413510685
            ],
            [
              -110.58591078973271,
              27.836599354694584
            ],
            [
              -110.55690535489839,
              27.846858473343673
            ],
            [
              -110.7947499205398,
              27.913519081863683
            ],
            [
              -110.8585618771756,
              27.8981395067037
            ],
            [
              -110.91077165987737,
              27.846858473343673
            ],
            [
              -110.97458361651289,
              27.923770917168497
            ],
            [
              -111.06740100798271,
              27.93914684733285
            ],
            [
              -111.1486162255188,
              27.959644683765347
            ],
            [
              -111.28529306887762,
              28.08392084982023
            ],
            [
              -111.38838127187655,
              28.24864192402019
            ],
            [
              -111.52368453831264,
              28.37910218152639
            ],
            [
              -111.69764588087331,
              28.441439589023204
            ],
            [
              -111.78784805849739,
              28.594293829910512
            ],
            [
              -111.94248036299577,
              28.724327959093827
            ],
            [
              -112.10535067872463,
              28.94533522036268
            ],
            [
              -112.16511231956856,
              28.95224181315784
            ],
            [
              -112.16511231956856,
              29.014703771915734
            ],
            [
              -112.19367421005335,
              29.143672152199144
            ],
            [
              -112.22223610053813,
              29.1644583753272
            ],
            [
              -112.23175673069971,
              29.260020779669333
            ],
            [
              -112.25079799102338,
              29.313994860961444
            ],
            [
              -112.3650455529625,
              29.347195499677028
            ],
            [
              -112.41740901885126,
              29.355493970053146
            ],
            [
              -112.42216933393206,
              29.43014977100941
            ],
            [
              -112.38884712836649,
              29.49646444780845
            ],
            [
              -112.5426243335752,
              29.6694405036082
            ],
            [
              -112.65389386082389,
              29.821253873870603
            ],
            [
              -112.70158080107333,
              29.92463103739685
            ],
            [
              -112.7810590348224,
              29.910853607317662
            ],
            [
              -112.7651633880726,
              30.076056812002165
            ],
            [
              -112.82874597507185,
              30.254716144135514
            ],
            [
              -112.91617203219623,
              30.302761361744984
            ],
            [
              -112.88438073869659,
              30.405636125274015
            ],
            [
              -113.00359808932019,
              30.54947883500388
            ],
            [
              -113.13871108669362,
              30.816050222803014
            ],
            [
              -113.13076326331871,
              30.979727695911564
            ],
            [
              -113.08307632306926,
              31.122715626291154
            ],
            [
              -113.2579284373172,
              31.211124191267146
            ],
            [
              -113.57584137231348,
              31.285866946960795
            ],
            [
              -113.66326742943745,
              31.374122961094002
            ],
            [
              -113.71890219306181,
              31.509739679621447
            ],
            [
              -113.91759777743447,
              31.597785203974226
            ],
            [
              -114.01297165793335,
              31.482632040633263
            ],
            [
              -114.16398030205659,
              31.482632040633263
            ],
            [
              -114.2676285944378,
              31.529863961074938
            ],
            [
              -114.37906560084137,
              31.61385160483151
            ],
            [
              -114.52907695561585,
              31.701410161105315
            ],
            [
              -114.69623246522121,
              31.78159964157092
            ],
            [
              -114.84195778128742,
              31.832593143640878
            ],
            [
              -114.84195778128742,
              31.832593143640878
            ],
            [
              -114.86566815420657,
              31.894309965755923
            ]
          ]
        ]
      },
      "id": 3
    },
    {
      "type": "Feature",
      "properties": {
        "name": "1930 s/d nowPunta",
        "beginTime": 1930,
        "endTime": 9146
      },
      "geometry": {
        "type": "Polygon",
        "coordinates": [
          [
            [
              -112.24683807519982,
              29.313660577179405
            ],
            [
              -112.20159851066317,
              29.33101567286886
            ],
            [
              -112.10388105126444,
              29.32312735905417
            ],
            [
              -112.05502232156523,
              29.304192916964524
            ],
            [
              -112.02968816542482,
              29.207888554302926
            ],
            [
              -112.00978275702859,
              29.2157857651097
            ],
            [
              -112.02968816542482,
              29.278941530301736
            ],
            [
              -112.01521150477315,
              29.319971862700342
            ],
            [
              -112.01883066993607,
              29.342058287078387
            ],
            [
              -111.93739945377025,
              29.365717003300418
            ],
            [
              -111.90120780214109,
              29.395676820787756
            ],
            [
              -111.87949281116359,
              29.342058287078387
            ],
            [
              -111.85777782018609,
              29.297880655609205
            ],
            [
              -111.81977658597563,
              29.258420182803093
            ],
            [
              -111.79263284725359,
              29.23473658742114
            ],
            [
              -111.84692032469734,
              29.171553547666022
            ],
            [
              -111.8523490724419,
              29.149430286489363
            ],
            [
              -111.82339575113855,
              29.124140724530818
            ],
            [
              -111.86501615051192,
              29.108331589173062
            ],
            [
              -111.93739945377025,
              29.117817361933774
            ],
            [
              -111.95187611442192,
              29.14152796681502
            ],
            [
              -111.93739945377125,
              29.103588374854567
            ],
            [
              -111.9138748802113,
              29.038000690822287
            ],
            [
              -111.85053948986007,
              29.034836413556235
            ],
            [
              -111.8794928111634,
              28.990526348879925
            ],
            [
              -111.9012078021409,
              28.95569797121314
            ],
            [
              -111.85958740276753,
              28.95253117387442
            ],
            [
              -111.86742285398792,
              28.876860881679463
            ],
            [
              -111.8184380143992,
              28.887583839836978
            ],
            [
              -111.82005813940751,
              28.79909044395447
            ],
            [
              -111.87077821828096,
              28.79909044395447
            ],
            [
              -111.95016616782236,
              28.81454903005053
            ],
            [
              -112.02734889654339,
              28.857048311315225
            ],
            [
              -112.06924809213444,
              28.893738262736008
            ],
            [
              -112.11335250854634,
              28.9342752335628
            ],
            [
              -112.17289347070258,
              28.96514990792133
            ],
            [
              -112.17730391234377,
              29.00758755186466
            ],
            [
              -112.17509869152295,
              29.069283929815526
            ],
            [
              -112.18171435398496,
              29.084702259279595
            ],
            [
              -112.1574569249582,
              29.11938506240908
            ],
            [
              -112.18391957480534,
              29.13864823536801
            ],
            [
              -112.21920310793485,
              29.15790779856762
            ],
            [
              -112.23905009532041,
              29.173312849092085
            ],
            [
              -112.21699788711447,
              29.23106119129949
            ],
            [
              -112.22140832875566,
              29.273389288972098
            ],
            [
              -112.22140832875566,
              29.273389288972098
            ],
            [
              -112.24683807519982,
              29.313660577179405
            ]
          ]
        ]
      },
      "id": 4
    },
    {
      "type": "Feature",
      "properties": {
        "name": "1930 s/d now Desemboque",
        "beginTime": 1930,
        "endTime": 9146
      },
      "geometry": {
        "type": "Polygon",
        "coordinates": [
          [
            [
              -112.95205748503076,
              30.51457942219062
            ],
            [
              -112.91353303570523,
              30.542658206507497
            ],
            [
              -112.90365497177575,
              30.570728873817103
            ],
            [
              -112.90859400374029,
              30.60559323761241
            ],
            [
              -112.93921600192252,
              30.646394112913427
            ],
            [
              -112.98860632157059,
              30.67188592269072
            ],
            [
              -113.04392347957663,
              30.67188592269072
            ],
            [
              -113.08009154032605,
              30.66806933249012
            ],
            [
              -113.06007206825674,
              30.631557136238243
            ],
            [
              -113.04005259618776,
              30.597788315329637
            ],
            [
              -113.0208339030013,
              30.572971066501154
            ],
            [
              -113.00401754646309,
              30.544009581567707
            ],
            [
              -112.98720118992486,
              30.524007322509163
            ],
            [
              -112.98720118992486,
              30.524007322509163
            ],
            [
              -112.95205748503076,
              30.51457942219062
            ]
          ]
        ]
      },
      "id": 5
    }
  ]
}