{
  "type": "FeatureCollection",
  "name": "arabic al-sufi",
  "features": [
    {
      "id": 1,
      "type": "Feature",
      "geometry": {
        "type": "Polygon",
        "coordinates": [
          [
            [
              51.9274168,
              29.588455326
            ],
            [
              51.930339012,
              29.610234167
            ],
            [
              51.938688189,
              29.631282576
            ],
            [
              51.933261224,
              29.646521783
            ],
            [
              51.896202587,
              29.678184543
            ],
            [
              51.867064646,
              29.714266302
            ],
            [
              51.844253628,
              29.751335313
            ],
            [
              51.844668093,
              29.785913621
            ],
            [
              51.838031974,
              29.812391928
            ],
            [
              51.818729984,
              29.833560158
            ],
            [
              51.799386395,
              29.84479168
            ],
            [
              51.812411395,
              29.88725178
            ],
            [
              51.832653486,
              29.894362174
            ],
            [
              51.856560613,
              29.879537499
            ],
            [
              51.926354237,
              29.851019434
            ],
            [
              51.975572945,
              29.835341865
            ],
            [
              52.034281514,
              29.838839948
            ],
            [
              52.0663619,
              29.853616301
            ],
            [
              52.101320879,
              29.878483061
            ],
            [
              52.123327833,
              29.916802734
            ],
            [
              52.13968944,
              29.940910987
            ],
            [
              52.167023987,
              29.94801614
            ],
            [
              52.199624238,
              29.935903449
            ],
            [
              52.229216949,
              29.925483234
            ],
            [
              52.320011487,
              29.930774702
            ],
            [
              52.36689659,
              29.898658607
            ],
            [
              52.379636477,
              29.886010819
            ],
            [
              52.452835767,
              29.852847778
            ],
            [
              52.543287374,
              29.822052581
            ],
            [
              52.576441352,
              29.822987187
            ],
            [
              52.597636202,
              29.840297803
            ],
            [
              52.595202873,
              29.876382821
            ],
            [
              52.671983045,
              29.840910431
            ],
            [
              52.770420985,
              29.836409234
            ],
            [
              52.88872148,
              29.807007176
            ],
            [
              53.113057452,
              29.701981469
            ],
            [
              53.052571688,
              29.644418102
            ],
            [
              53.056806786,
              29.560395763
            ],
            [
              53.040627554,
              29.558985975
            ],
            [
              53.056944964,
              29.527253248
            ],
            [
              53.080331096,
              29.509142807
            ],
            [
              53.069524089,
              29.490107043
            ],
            [
              52.986404209,
              29.461907963
            ],
            [
              52.974394341,
              29.420225677
            ],
            [
              52.875205582,
              29.406651084
            ],
            [
              52.829586906,
              29.440708309
            ],
            [
              52.75987034,
              29.429214558
            ],
            [
              52.741844261,
              29.387768531
            ],
            [
              52.705575083,
              29.359771247
            ],
            [
              52.613850829,
              29.350700347
            ],
            [
              52.544898745,
              29.373902178
            ],
            [
              52.467272077,
              29.31519339
            ],
            [
              52.452925256,
              29.258221818
            ],
            [
              52.415721962,
              29.196955394
            ],
            [
              52.373777868,
              29.181411729
            ],
            [
              52.308888479,
              29.197082242
            ],
            [
              52.268844431,
              29.222379018
            ],
            [
              52.23505684,
              29.229957704
            ],
            [
              52.184728329,
              29.210593255
            ],
            [
              52.144164604,
              29.189810583
            ],
            [
              52.132067589,
              29.195046737
            ],
            [
              52.088848558,
              29.271760772
            ],
            [
              52.076345245,
              29.338632561
            ],
            [
              52.083134141,
              29.385429317
            ],
            [
              52.067349881,
              29.435029778
            ],
            [
              52.028242601,
              29.498926073
            ],
            [
              51.986201433,
              29.522633864
            ],
            [
              51.929225546,
              29.562047527
            ],
            [
              51.929225546,
              29.562047527
            ],
            [
              51.9274168,
              29.588455326
            ]
          ]
        ]
      },
      "properties": {
        "name": "964 Shiraz",
        "beginTime": 964,
        "endTime": 9146
      }
    },
    {
      "id": 2,
      "type": "Feature",
      "geometry": {
        "type": "Polygon",
        "coordinates": [
          [
            [
              51.250435182,
              35.162058637
            ],
            [
              51.134628659,
              35.165426118
            ],
            [
              50.985976206,
              35.124373482
            ],
            [
              50.83867428,
              35.167016414
            ],
            [
              50.885615493,
              35.249053547
            ],
            [
              50.934141929,
              35.378143035
            ],
            [
              50.946350946,
              35.432122644
            ],
            [
              50.842835653,
              35.443029669
            ],
            [
              50.608961556,
              35.534564714
            ],
            [
              50.310268173,
              35.524564044
            ],
            [
              50.367892148,
              35.673113637
            ],
            [
              50.7851979,
              35.707742717
            ],
            [
              51.083778018,
              35.757575219
            ],
            [
              51.07842762,
              35.828630481
            ],
            [
              51.260180159,
              35.966731285
            ],
            [
              51.395292013,
              35.934659296
            ],
            [
              51.470087331,
              36.156698446
            ],
            [
              51.863113663,
              35.981321158
            ],
            [
              52.001045235,
              35.815199615
            ],
            [
              52.147021852,
              35.789053857
            ],
            [
              52.323246514,
              35.866979469
            ],
            [
              52.563575513,
              35.981408601
            ],
            [
              52.946368959,
              35.847494892
            ],
            [
              53.209269355,
              35.808312588
            ],
            [
              52.410524172,
              35.301752064
            ],
            [
              52.030384359,
              35.446408831
            ],
            [
              51.972157952,
              35.535546884
            ],
            [
              51.943488657,
              35.394011006
            ],
            [
              51.923060371,
              35.264881875
            ],
            [
              52.074161416,
              35.060684241
            ],
            [
              52.00882075,
              34.834487141
            ],
            [
              51.72183336,
              34.960495006
            ],
            [
              51.55147239,
              34.987554008
            ],
            [
              51.47046025,
              35.081291583
            ],
            [
              51.47046025,
              35.081291583
            ],
            [
              51.250435182,
              35.162058637
            ]
          ]
        ]
      },
      "properties": {
        "name": "964 Tehran",
        "beginTime": 964,
        "endTime": 9146
      }
    },
    {
      "id": 3,
      "type": "Feature",
      "geometry": {
        "type": "Polygon",
        "coordinates": [
          [
            [
              44.414309475,
              33.247963317
            ],
            [
              44.335222836,
              33.206101571
            ],
            [
              44.178556063,
              33.205815871
            ],
            [
              44.096871238,
              33.322860619
            ],
            [
              44.26077118,
              33.491522367
            ],
            [
              44.3707876,
              33.550210388
            ],
            [
              44.5071247,
              33.580493667
            ],
            [
              44.618666207,
              33.665980144
            ],
            [
              44.687312684,
              33.665856996
            ],
            [
              44.677689789,
              33.538193353
            ],
            [
              44.671477434,
              33.415953227
            ],
            [
              44.673227094,
              33.29369447
            ],
            [
              44.608423316,
              33.218241845
            ],
            [
              44.608423316,
              33.218241845
            ],
            [
              44.414309475,
              33.247963317
            ]
          ]
        ]
      },
      "properties": {
        "name": "964 Baghdad",
        "beginTime": 964,
        "endTime": 970
      }
    },
    {
      "id": 4,
      "type": "Feature",
      "geometry": {
        "type": "Polygon",
        "coordinates": [
          [
            [
              51.885999126,
              30.681764143
            ],
            [
              51.927786918,
              30.890864603
            ],
            [
              52.026650548,
              31.04830015
            ],
            [
              52.006944063,
              31.348588546
            ],
            [
              52.144795025,
              31.614514304
            ],
            [
              52.405861578,
              31.508078975
            ],
            [
              53.283721027,
              31.525635425
            ],
            [
              53.203411485,
              31.752409096
            ],
            [
              53.090006331,
              31.879979171
            ],
            [
              53.115729894,
              32.437133502
            ],
            [
              53.36359588,
              32.590294318
            ],
            [
              54.00435867,
              32.629728233
            ],
            [
              54.051351177,
              32.772820298
            ],
            [
              54.251902514,
              32.897330497
            ],
            [
              54.440050957,
              33.002247907
            ],
            [
              54.814171639,
              32.998536208
            ],
            [
              54.943406556,
              33.104867744
            ],
            [
              55.176879022,
              33.13924371
            ],
            [
              55.489216553,
              33.340731542
            ],
            [
              55.698141414,
              33.891414459
            ],
            [
              55.49583537,
              34.320973652
            ],
            [
              52.928152232,
              34.316319476
            ],
            [
              52.453470793,
              34.488575288
            ],
            [
              52.150918467,
              34.485112976
            ],
            [
              51.791805814,
              34.556443004
            ],
            [
              50.97817539,
              34.455845716
            ],
            [
              50.885669017,
              34.124133003
            ],
            [
              50.962126182,
              33.916043247
            ],
            [
              50.76462962,
              33.817091244
            ],
            [
              50.418858235,
              33.672229734
            ],
            [
              49.902324443,
              33.491865774
            ],
            [
              49.822367684,
              33.129064472
            ],
            [
              49.543863485,
              33.017152813
            ],
            [
              49.718160973,
              32.726667259
            ],
            [
              50.169306689,
              32.498220528
            ],
            [
              50.562585287,
              32.508557838
            ],
            [
              50.830880738,
              32.650710134
            ],
            [
              50.813565396,
              32.457911622
            ],
            [
              51.157646563,
              32.176653292
            ],
            [
              51.33854458,
              31.943567461
            ],
            [
              51.192131851,
              31.758179703
            ],
            [
              51.248913683,
              31.303304924
            ],
            [
              51.318595838,
              30.892014269
            ],
            [
              51.708099234,
              30.61143368
            ],
            [
              51.708099234,
              30.61143368
            ],
            [
              51.885999126,
              30.681764143
            ]
          ]
        ]
      },
      "properties": {
        "name": "1010 Isfahan",
        "beginTime": 1010,
        "endTime": 9146
      }
    },
    {
      "id": 5,
      "type": "Feature",
      "geometry": {
        "type": "Polygon",
        "coordinates": [
          [
            [
              53.997961964,
              37.050877808
            ],
            [
              54.881739469,
              37.406053224
            ],
            [
              55.570543985,
              37.879465237
            ],
            [
              56.650745622,
              38.041350317
            ],
            [
              57.244818274,
              37.826894498
            ],
            [
              58.745083002,
              37.446642593
            ],
            [
              59.126422249,
              37.394480433
            ],
            [
              60.121908656,
              36.67437164
            ],
            [
              61.097677123,
              36.402960655
            ],
            [
              61.072275206,
              35.255513069
            ],
            [
              60.338171848,
              34.142252438
            ],
            [
              60.37972516,
              33.284245039
            ],
            [
              60.847675525,
              31.136929626
            ],
            [
              61.612564784,
              31.177480649
            ],
            [
              60.49724132,
              29.700454632
            ],
            [
              63.025500495,
              29.080941049
            ],
            [
              64.508928041,
              29.230073254
            ],
            [
              66.483542224,
              29.712745894
            ],
            [
              66.79241501,
              31.004042756
            ],
            [
              68.120198668,
              31.187617848
            ],
            [
              68.067959587,
              31.685671839
            ],
            [
              69.34527582,
              31.498043837
            ],
            [
              69.576490625,
              32.573644814
            ],
            [
              70.490723291,
              33.256274762
            ],
            [
              70.183101047,
              33.781961858
            ],
            [
              71.374271713,
              34.026884114
            ],
            [
              71.287113739,
              34.52844874
            ],
            [
              71.803771398,
              35.298585429
            ],
            [
              71.61520543,
              35.989563213
            ],
            [
              72.763901055,
              36.778809138
            ],
            [
              74.44979165,
              36.771395362
            ],
            [
              75.161497442,
              37.256685683
            ],
            [
              74.173439456,
              37.527202716
            ],
            [
              73.158273752,
              37.622020592
            ],
            [
              71.875642386,
              36.783524575
            ],
            [
              71.70317813,
              37.419104172
            ],
            [
              71.797283576,
              37.82609814
            ],
            [
              71.470729884,
              37.964052099
            ],
            [
              71.35977484,
              38.343783156
            ],
            [
              70.855159165,
              38.628933076
            ],
            [
              70.229127683,
              37.932089288
            ],
            [
              69.453240095,
              37.555081009
            ],
            [
              68.892796649,
              37.4209757
            ],
            [
              67.970595747,
              37.030693314
            ],
            [
              67.891645516,
              37.325525581
            ],
            [
              68.30342263,
              37.856496059
            ],
            [
              68.494896072,
              38.403472189
            ],
            [
              68.205028606,
              38.928154165
            ],
            [
              67.48292482,
              39.301027288
            ],
            [
              67.707948692,
              39.554663316
            ],
            [
              68.741933523,
              39.444718498
            ],
            [
              69.208174968,
              40.007847068
            ],
            [
              69.511888248,
              40.561764906
            ],
            [
              70.591323643,
              40.774805987
            ],
            [
              70.219602281,
              40.394443497
            ],
            [
              70.836389926,
              39.923543172
            ],
            [
              72.305377627,
              40.100654473
            ],
            [
              73.346697041,
              40.913756809
            ],
            [
              72.622798894,
              41.061563501
            ],
            [
              71.818354431,
              41.57699568
            ],
            [
              71.294328279,
              41.212450551
            ],
            [
              70.830519573,
              41.494652395
            ],
            [
              70.457941817,
              41.596157577
            ],
            [
              71.439929651,
              42.275174365
            ],
            [
              70.888748563,
              42.351332587
            ],
            [
              69.227733026,
              41.659340798
            ],
            [
              68.619048287,
              41.04384506
            ],
            [
              68.441791675,
              40.75539841
            ],
            [
              68.070524656,
              41.121466095
            ],
            [
              66.88482065,
              41.240725081
            ],
            [
              66.573109415,
              41.817356746
            ],
            [
              66.020169322,
              42.061184644
            ],
            [
              66.22811697,
              43.03456395
            ],
            [
              65.798322796,
              42.969703806
            ],
            [
              65.105853933,
              43.749326907
            ],
            [
              64.396974061,
              43.608556671
            ],
            [
              63.399096786,
              43.718422373
            ],
            [
              61.991589416,
              43.573092493
            ],
            [
              60.695871992,
              44.642036975
            ],
            [
              58.633674508,
              45.645287101
            ],
            [
              55.851169083,
              45.042888161
            ],
            [
              55.861032591,
              41.396808991
            ],
            [
              55.504844678,
              41.367124809
            ],
            [
              54.991653933,
              41.780211911
            ],
            [
              54.163317797,
              42.397925491
            ],
            [
              53.217420828,
              42.206254909
            ],
            [
              52.391807143,
              41.732683311
            ],
            [
              52.539266865,
              41.646401789
            ],
            [
              52.511190148,
              41.478243169
            ],
            [
              52.632134269,
              41.441208673
            ],
            [
              52.752918445,
              41.339835821
            ],
            [
              52.809093676,
              41.204706872
            ],
            [
              52.821729775,
              41.073534279
            ],
            [
              52.909812443,
              40.968786128
            ],
            [
              52.814246136,
              40.833022894
            ],
            [
              52.758900724,
              40.747032606
            ],
            [
              52.812897659,
              40.686412863
            ],
            [
              52.687500436,
              40.543956882
            ],
            [
              52.653705198,
              40.32209304
            ],
            [
              52.687498497,
              40.204068005
            ],
            [
              52.676874777,
              40.015530738
            ],
            [
              53.096621314,
              39.677057345
            ],
            [
              53.177478977,
              39.705576302
            ],
            [
              53.069348005,
              39.846697583
            ],
            [
              52.914243844,
              39.964482569
            ],
            [
              53.024206693,
              39.969597502
            ],
            [
              53.197512557,
              39.95651061
            ],
            [
              53.349523192,
              39.956100587
            ],
            [
              53.414625494,
              39.933257136
            ],
            [
              53.364425056,
              39.833745662
            ],
            [
              53.433950576,
              39.681185489
            ],
            [
              53.30053759,
              39.592987622
            ],
            [
              53.355414121,
              39.713534968
            ],
            [
              53.26628433,
              39.730884432
            ],
            [
              53.063311002,
              39.486193389
            ],
            [
              53.168673441,
              39.199830553
            ],
            [
              53.250812316,
              39.390700995
            ],
            [
              53.491833998,
              39.309069708
            ],
            [
              53.719419438,
              39.012408441
            ],
            [
              53.793569549,
              39.046371143
            ],
            [
              53.90034837,
              38.983797388
            ],
            [
              53.794448665,
              38.59019583
            ],
            [
              53.818669489,
              38.210270954
            ],
            [
              53.779524116,
              37.731079504
            ],
            [
              53.913471814,
              37.291632299
            ],
            [
              53.913471814,
              37.291632299
            ],
            [
              53.997961964,
              37.050877808
            ]
          ]
        ]
      },
      "properties": {
        "name": "1030 biruni",
        "beginTime": 1030,
        "endTime": 9146
      }
    },
    {
      "id": 6,
      "type": "Feature",
      "geometry": {
        "type": "Polygon",
        "coordinates": [
          [
            [
              -5.609116019,
              35.936273028
            ],
            [
              -5.08478742,
              36.368270241
            ],
            [
              -4.508735304,
              36.49965388
            ],
            [
              -4.387256502,
              36.65951533
            ],
            [
              -3.084065915,
              36.703622392
            ],
            [
              -2.57800744,
              36.643235992
            ],
            [
              -2.415278222,
              36.820116237
            ],
            [
              -2.13464105,
              36.654839126
            ],
            [
              -1.832793663,
              36.951993047
            ],
            [
              -1.633118822,
              37.30391732
            ],
            [
              -0.656618109,
              37.572317334
            ],
            [
              -0.516865476,
              38.100529293
            ],
            [
              -0.339535291,
              38.33631807
            ],
            [
              0.258653715,
              38.725506768
            ],
            [
              -0.025668371,
              38.96019455
            ],
            [
              -0.266443985,
              39.503735583
            ],
            [
              0.595316335,
              40.552587632
            ],
            [
              0.940593992,
              40.699747472
            ],
            [
              0.852530038,
              40.812696306
            ],
            [
              1.027347819,
              41.013304971
            ],
            [
              2.051172194,
              41.255997466
            ],
            [
              2.266357013,
              41.259861934
            ],
            [
              2.263895676,
              41.429308377
            ],
            [
              3.208146447,
              41.85838615
            ],
            [
              3.285114934,
              41.99593841
            ],
            [
              3.166867213,
              42.134968802
            ],
            [
              3.1312757,
              42.205367237
            ],
            [
              3.157448104,
              42.237683101
            ],
            [
              3.271569629,
              42.226984335
            ],
            [
              3.326556009,
              42.313612222
            ],
            [
              3.205919821,
              42.364350173
            ],
            [
              3.176146696,
              42.439137711
            ],
            [
              3.105583631,
              42.437012516
            ],
            [
              3.026854387,
              42.495093208
            ],
            [
              2.828645374,
              42.462530558
            ],
            [
              2.662293749,
              42.417667158
            ],
            [
              2.645192482,
              42.355782673
            ],
            [
              2.563085135,
              42.370365456
            ],
            [
              2.531978857,
              42.349881586
            ],
            [
              2.391770735,
              42.417239156
            ],
            [
              2.254700894,
              42.44461433
            ],
            [
              2.162019216,
              42.427720683
            ],
            [
              2.072723223,
              42.370976156
            ],
            [
              2.012368336,
              42.365186152
            ],
            [
              1.919823851,
              42.475892806
            ],
            [
              1.792492936,
              42.499483828
            ],
            [
              1.677537488,
              42.512281978
            ],
            [
              1.602297685,
              42.479866057
            ],
            [
              1.462369775,
              42.440610644
            ],
            [
              1.460806177,
              42.600704121
            ],
            [
              1.361510972,
              42.72974829
            ],
            [
              1.17171339,
              42.725165726
            ],
            [
              1.101246218,
              42.793628465
            ],
            [
              0.903861812,
              42.813659734
            ],
            [
              0.674790755,
              42.870105308
            ],
            [
              0.638703707,
              42.829362988
            ],
            [
              0.645474788,
              42.695599653
            ],
            [
              0.375785559,
              42.730337891
            ],
            [
              0.296576754,
              42.683195068
            ],
            [
              0.200254467,
              42.742417233
            ],
            [
              0.076178448,
              42.71780409
            ],
            [
              -0.058429396,
              42.707333949
            ],
            [
              -0.314430765,
              42.862306728
            ],
            [
              -0.527633238,
              42.847225977
            ],
            [
              -0.741969621,
              42.985497903
            ],
            [
              -1.085221278,
              43.021433466
            ],
            [
              -1.292810744,
              43.13209093
            ],
            [
              -1.406747264,
              43.058810765
            ],
            [
              -1.452615415,
              43.098667426
            ],
            [
              -1.345699356,
              43.209859593
            ],
            [
              -1.397509462,
              43.294550137
            ],
            [
              -1.535755557,
              43.316175724
            ],
            [
              -1.596982118,
              43.262240857
            ],
            [
              -1.615653763,
              43.307054438
            ],
            [
              -1.720775782,
              43.31851861
            ],
            [
              -1.780979242,
              43.376782041
            ],
            [
              -1.872666682,
              43.389378059
            ],
            [
              -2.07231057,
              43.329089034
            ],
            [
              -2.161316881,
              43.306954791
            ],
            [
              -2.222149772,
              43.326284151
            ],
            [
              -2.318787641,
              43.313775277
            ],
            [
              -2.517009666,
              43.386585156
            ],
            [
              -2.649390028,
              43.418504036
            ],
            [
              -2.756524268,
              43.460148176
            ],
            [
              -2.819854582,
              43.439184012
            ],
            [
              -2.948197593,
              43.443557928
            ],
            [
              -3.055006577,
              43.379120349
            ],
            [
              -3.024566735,
              43.339196828
            ],
            [
              -3.124330062,
              43.378027514
            ],
            [
              -3.22702791,
              43.396413225
            ],
            [
              -3.385402078,
              43.432150843
            ],
            [
              -3.474846564,
              43.486534107
            ],
            [
              -3.573115775,
              43.539945323
            ],
            [
              -3.733971776,
              43.495699955
            ],
            [
              -3.848000309,
              43.506495502
            ],
            [
              -4.112426492,
              43.436075007
            ],
            [
              -4.495693069,
              43.406494752
            ],
            [
              -4.899556919,
              43.463956969
            ],
            [
              -5.179352989,
              43.485440712
            ],
            [
              -5.288313703,
              43.545757734
            ],
            [
              -5.42697809,
              43.560555421
            ],
            [
              -5.634954831,
              43.554378815
            ],
            [
              -5.766222052,
              43.629204407
            ],
            [
              -5.857772595,
              43.673634326
            ],
            [
              -5.942602344,
              43.625848062
            ],
            [
              -5.997357271,
              43.596344263
            ],
            [
              -6.068711108,
              43.606114452
            ],
            [
              -6.094035577,
              43.577189715
            ],
            [
              -6.255683636,
              43.610086747
            ],
            [
              -6.361547431,
              43.570028331
            ],
            [
              -6.590475677,
              43.573039773
            ],
            [
              -7.101746168,
              43.570352027
            ],
            [
              -7.276036041,
              43.597890572
            ],
            [
              -7.390195318,
              43.707135575
            ],
            [
              -7.492653515,
              43.756770892
            ],
            [
              -7.589675541,
              43.70937974
            ],
            [
              -7.665250932,
              43.791016343
            ],
            [
              -7.769983868,
              43.751699036
            ],
            [
              -7.852749878,
              43.766264866
            ],
            [
              -7.940479443,
              43.759866801
            ],
            [
              -7.981418402,
              43.720938089
            ],
            [
              -8.05976189,
              43.717590212
            ],
            [
              -8.089053604,
              43.678495095
            ],
            [
              -8.160125298,
              43.626295288
            ],
            [
              -8.274774247,
              43.5660818
            ],
            [
              -8.335695746,
              43.585529213
            ],
            [
              -8.314832553,
              43.535660182
            ],
            [
              -8.358195389,
              43.47738884
            ],
            [
              -8.328058296,
              43.432331271
            ],
            [
              -8.229143447,
              43.398035583
            ],
            [
              -8.221868751,
              43.353517062
            ],
            [
              -8.283671296,
              43.402569023
            ],
            [
              -8.376933952,
              43.405522302
            ],
            [
              -8.365191429,
              43.361178868
            ],
            [
              -8.410728199,
              43.399797092
            ],
            [
              -8.475651008,
              43.38327854
            ],
            [
              -8.538867317,
              43.336653474
            ],
            [
              -8.632560767,
              43.322862266
            ],
            [
              -8.723845956,
              43.292682451
            ],
            [
              -8.835469152,
              43.370712099
            ],
            [
              -8.869411827,
              43.337293013
            ],
            [
              -8.93283688,
              43.315433218
            ],
            [
              -9.001327348,
              43.276715095
            ],
            [
              -8.96780051,
              43.244734957
            ],
            [
              -9.032483447,
              43.233890705
            ],
            [
              -9.076445817,
              43.196163875
            ],
            [
              -9.13377002,
              43.208255969
            ],
            [
              -9.409247391,
              43.020394548
            ],
            [
              -9.239055268,
              42.819234298
            ],
            [
              -9.112106401,
              42.695858191
            ],
            [
              -9.138310637,
              42.522193063
            ],
            [
              -9.021708132,
              42.476170386
            ],
            [
              -8.894906245,
              42.352285884
            ],
            [
              -8.915196089,
              42.163280448
            ],
            [
              -8.90123433,
              41.836722743
            ],
            [
              -8.69885651,
              41.97858351
            ],
            [
              -8.27412894,
              42.081504998
            ],
            [
              -8.249962471,
              41.861617953
            ],
            [
              -8.051783666,
              41.720549394
            ],
            [
              -7.916427985,
              41.815320465
            ],
            [
              -7.646462581,
              41.819224258
            ],
            [
              -7.050983936,
              41.879611857
            ],
            [
              -6.570738069,
              41.849665713
            ],
            [
              -6.223584298,
              41.499042151
            ],
            [
              -7.010925877,
              41.128366808
            ],
            [
              -6.876903187,
              40.270319562
            ],
            [
              -7.104669943,
              39.693997906
            ],
            [
              -7.565826171,
              39.697909718
            ],
            [
              -7.106201872,
              38.9710128
            ],
            [
              -7.345276125,
              38.531017559
            ],
            [
              -7.089216029,
              38.056130029
            ],
            [
              -7.616744995,
              37.638345583
            ],
            [
              -7.491139025,
              37.070906981
            ],
            [
              -6.948080805,
              37.059925251
            ],
            [
              -6.556583106,
              36.855553018
            ],
            [
              -6.433858999,
              36.488268846
            ],
            [
              -5.960218566,
              36.060890851
            ],
            [
              -5.960218566,
              36.060890851
            ],
            [
              -5.609116019,
              35.936273028
            ]
          ]
        ]
      },
      "properties": {
        "name": "1270 Spain",
        "beginTime": 1270,
        "endTime": 9146
      }
    },
    {
      "id": 7,
      "type": "Feature",
      "geometry": {
        "type": "Polygon",
        "coordinates": [
          [
            [
              10.077852948,
              52.050396109
            ],
            [
              10.763614448,
              52.270752143
            ],
            [
              10.926890995,
              52.836609827
            ],
            [
              12.020843864,
              52.777389258
            ],
            [
              12.59231178,
              52.240767821
            ],
            [
              13.049486113,
              52.080508918
            ],
            [
              13.049486113,
              51.47438836
            ],
            [
              13.065813768,
              51.065775976
            ],
            [
              12.363724614,
              50.581005453
            ],
            [
              11.775929042,
              50.174922194
            ],
            [
              11.777051804,
              49.777142534
            ],
            [
              11.612813414,
              49.250249876
            ],
            [
              12.221461565,
              49.06069725
            ],
            [
              12.909772202,
              48.88068958
            ],
            [
              12.493697693,
              48.634770803
            ],
            [
              11.848064835,
              48.539865986
            ],
            [
              11.211535789,
              48.386048345
            ],
            [
              10.21941662,
              48.600445387
            ],
            [
              8.990051564,
              49.111302869
            ],
            [
              8.795941292,
              49.784349191
            ],
            [
              8.343017324,
              50.776638712
            ],
            [
              8.019500204,
              51.668123503
            ],
            [
              9.184161836,
              52.120650814
            ],
            [
              9.184161836,
              52.120650814
            ],
            [
              10.077852948,
              52.050396109
            ]
          ]
        ]
      },
      "properties": {
        "name": "1515 Germany",
        "beginTime": 1515,
        "endTime": 9146
      }
    },
    {
      "id": 8,
      "type": "Feature",
      "geometry": {
        "type": "Polygon",
        "coordinates": [
          [
            [
              4.479397045,
              52.119286642
            ],
            [
              4.515374119,
              52.130882712
            ],
            [
              4.558546608,
              52.152410266
            ],
            [
              4.545055206,
              52.189920604
            ],
            [
              4.50098329,
              52.202600767
            ],
            [
              4.463207362,
              52.196536792
            ],
            [
              4.414638312,
              52.177236823
            ],
            [
              4.411040605,
              52.144131669
            ],
            [
              4.439822264,
              52.127569857
            ],
            [
              4.439822264,
              52.127569857
            ],
            [
              4.479397045,
              52.119286642
            ]
          ]
        ]
      },
      "properties": {
        "name": "1625 Leiden",
        "beginTime": 1625,
        "endTime": 9146
      }
    },
    {
      "id": 9,
      "type": "Feature",
      "geometry": {
        "type": "Polygon",
        "coordinates": [
          [
            [
              13.400671312,
              45.839658293
            ],
            [
              13.032518706,
              46.603780995
            ],
            [
              11.314473211,
              46.98185591
            ],
            [
              10.056618474,
              46.519403583
            ],
            [
              9.044198807,
              46.074268653
            ],
            [
              8.062458524,
              45.496633406
            ],
            [
              6.804603787,
              44.804276222
            ],
            [
              7.602267767,
              43.882794688
            ],
            [
              8.737404969,
              44.433040565
            ],
            [
              9.964580322,
              44.03738075
            ],
            [
              10.578167999,
              43.170995583
            ],
            [
              11.498549514,
              42.428162108
            ],
            [
              12.787083635,
              41.400855674
            ],
            [
              13.768823918,
              41.216493838
            ],
            [
              14.474449746,
              40.753310447
            ],
            [
              15.057358039,
              40.42714821
            ],
            [
              15.57703946,
              40.095023233
            ],
            [
              16.025683142,
              38.883241335
            ],
            [
              15.689200381,
              38.004798505
            ],
            [
              15.913522222,
              37.85735357
            ],
            [
              16.474326824,
              38.445356402
            ],
            [
              17.184679321,
              39.376268018
            ],
            [
              16.549100771,
              39.664669402
            ],
            [
              16.885583533,
              40.49424701
            ],
            [
              17.895031817,
              40.266407933
            ],
            [
              18.381062472,
              39.808420725
            ],
            [
              18.493223393,
              40.266407933
            ],
            [
              17.895031817,
              40.664620383
            ],
            [
              16.287391957,
              41.397883822
            ],
            [
              15.988296169,
              41.649801188
            ],
            [
              16.250004983,
              41.984164401
            ],
            [
              15.35271762,
              41.984164401
            ],
            [
              14.71713907,
              42.067482355
            ],
            [
              13.782464733,
              42.894650526
            ],
            [
              13.632916839,
              43.656797247
            ],
            [
              12.36175974,
              44.034289244
            ],
            [
              12.174824873,
              44.835153615
            ],
            [
              12.399146714,
              44.86166005
            ],
            [
              12.212211846,
              45.467941464
            ],
            [
              12.959951316,
              45.625040692
            ],
            [
              12.959951316,
              45.625040692
            ],
            [
              13.400671312,
              45.839658293
            ]
          ]
        ]
      },
      "properties": {
        "name": "1651 Italy",
        "beginTime": 1030,
        "endTime": 9146
      }
    },
    {
      "id": 10,
      "type": "Feature",
      "geometry": {
        "type": "Polygon",
        "coordinates": [
          [
            [
              -0.852083667,
              44.621905861
            ],
            [
              1.140025219,
              44.302729596
            ],
            [
              2.23771787,
              44.592961946
            ],
            [
              3.741963355,
              45.45500524
            ],
            [
              5.36817469,
              45.71108703
            ],
            [
              6.018659225,
              47.525914074
            ],
            [
              5.571451107,
              48.126399877
            ],
            [
              4.961621857,
              49.200425625
            ],
            [
              3.213444671,
              49.649966491
            ],
            [
              1.790509753,
              50.173572328
            ],
            [
              0.611506535,
              49.728869911
            ],
            [
              -0.079633283,
              49.226983262
            ],
            [
              -1.136670651,
              48.98745068
            ],
            [
              -1.949776319,
              48.4240395
            ],
            [
              -3.210090103,
              48.288963703
            ],
            [
              -1.949776319,
              47.553359642
            ],
            [
              -1.624534051,
              47.140166968
            ],
            [
              -0.974049517,
              46.667969479
            ],
            [
              -0.64880725,
              45.966000854
            ],
            [
              -0.567496683,
              45.597417109
            ],
            [
              -0.567496683,
              45.597417109
            ],
            [
              -0.852083667,
              44.621905861
            ]
          ]
        ]
      },
      "properties": {
        "name": "1681 France",
        "beginTime": 1681,
        "endTime": 9146
      }
    },
    {
      "type": "Feature",
      "properties": {
        "name": "1665 England ",
        "beginTime": 1665,
        "endTime": 9146
      },
      "geometry": {
        "type": "Polygon",
        "coordinates": [
          [
            [
              -3.1665280240715106,
              54.845332751254375
            ],
            [
              -3.369262382698338,
              54.52304242195217
            ],
            [
              -3.0905026395864184,
              54.3756998222249
            ],
            [
              -2.685033922332792,
              54.213009987277445
            ],
            [
              -2.5836667430180285,
              53.359649777740145
            ],
            [
              -2.7610593068164917,
              52.88823086109778
            ],
            [
              -3.0651608447567185,
              52.53512066246813
            ],
            [
              -2.5836667430177442,
              51.804635602008204
            ],
            [
              -2.0261472567939904,
              51.66338520667145
            ],
            [
              -0.10017084983721247,
              51.52169308729364
            ],
            [
              0.7107665846700684,
              52.00788517568961
            ],
            [
              -0.4296141826058033,
              52.99513244621613
            ],
            [
              -0.6323485412326306,
              53.69107450484094
            ],
            [
              -0.9617918740012215,
              54.19818811872338
            ],
            [
              -2.0261472567920578,
              54.961895507850045
            ],
            [
              -2.507641358530776,
              55.121618803129564
            ],
            [
              -2.507641358530776,
              55.121618803129564
            ],
            [
              -3.1665280240715106,
              54.845332751254375
            ]
          ]
        ]
      },
      "id": 11
    },
    {
      "type": "Feature",
      "properties": {
        "name": "970 all arabs",
        "beginTime": 970,
        "endTime": 9146
      },
      "geometry": {
        "type": "Polygon",
        "coordinates": [
          [
            [
              43.7825348513706,
              12.752044404131496
            ],
            [
              44.61761677265255,
              12.802944540102047
            ],
            [
              45.97462489473713,
              13.412933962518096
            ],
            [
              47.74917397746137,
              13.818739391606698
            ],
            [
              49.0017968593844,
              14.223839091399398
            ],
            [
              49.88907140074653,
              14.830123912287164
            ],
            [
              52.446509784673964,
              15.686112919977205
            ],
            [
              52.446509784673964,
              16.43843313296577
            ],
            [
              54.11667362723793,
              16.888439208217036
            ],
            [
              55.26491126900072,
              17.038204584944253
            ],
            [
              55.47368174932123,
              17.83490625801784
            ],
            [
              56.62191939108524,
              17.934247286199366
            ],
            [
              56.83068987140575,
              18.628059598288772
            ],
            [
              57.978927513168514,
              19.2205143739711
            ],
            [
              58.135505373408876,
              20.496792715228977
            ],
            [
              58.65743157421019,
              20.789841319983566
            ],
            [
              60.27540279669404,
              22.584179565740868
            ],
            [
              59.64909135573254,
              22.77680558236169
            ],
            [
              58.866202054530646,
              23.783596169811986
            ],
            [
              57.77015703284806,
              23.879081384388954
            ],
            [
              56.56972677100518,
              24.402986080336845
            ],
            [
              56.517534150925,
              26.61669391843013
            ],
            [
              54.8473703083597,
              25.06663906400648
            ],
            [
              54.27325148747835,
              24.450506974557243
            ],
            [
              52.028968824033,
              24.307890653817026
            ],
            [
              51.6636204834721,
              24.545494995187838
            ],
            [
              51.6636204834721,
              26.008494582377608
            ],
            [
              51.08950166259072,
              26.289598599967604
            ],
            [
              50.515382841708,
              25.208387519047974
            ],
            [
              50.15003450114713,
              25.86768930353989
            ],
            [
              50.15003450114713,
              26.52333298021425
            ],
            [
              49.0017968593844,
              27.684823825400912
            ],
            [
              48.2711001782626,
              28.83409135455946
            ],
            [
              48.70375837535735,
              30.221276337334672
            ],
            [
              47.46551086264299,
              32.00660817399982
            ],
            [
              45.445212289266834,
              33.377719701538155
            ],
            [
              43.1642300290018,
              34.72755099088485
            ],
            [
              41.46978606423474,
              36.10836443644506
            ],
            [
              40.16636762979854,
              35.633071070609844
            ],
            [
              35.34371942238295,
              32.886548099335016
            ],
            [
              35.017864813773855,
              29.599886343383744
            ],
            [
              34.49649743999936,
              28.288228835619478
            ],
            [
              37.36401799576066,
              25.027259715771947
            ],
            [
              37.29884707403889,
              24.25720329599578
            ],
            [
              38.602265508475085,
              23.3628534992514
            ],
            [
              38.79188089005467,
              22.549926815878237
            ],
            [
              39.167821702592676,
              21.241883642616415
            ],
            [
              39.63774771826522,
              20.27517534305096
            ],
            [
              40.76557015587929,
              19.656825307398762
            ],
            [
              41.70542218722437,
              18.145282522991906
            ],
            [
              42.64527421857065,
              16.845571646197243
            ],
            [
              42.671827599569724,
              15.323348951892882
            ],
            [
              43.04241640270692,
              14.338194459402246
            ],
            [
              43.258593204536965,
              13.618971328431385
            ],
            [
              43.258593204536965,
              12.86744915118436
            ],
            [
              43.258593204536965,
              12.86744915118436
            ],
            [
              43.7825348513706,
              12.752044404131496
            ]
          ]
        ]
      },
      "id": 12
    }
  ]
}