{
  "type": "FeatureCollection",
  "name": "khoi-san",
  "features": [
    {
      "id": 1,
      "type": "Feature",
      "geometry": {
        "type": "Polygon",
        "coordinates": [
          [
            [
              8.287103052,
              6.619740103
            ],
            [
              8.60646641,
              6.010226408
            ],
            [
              8.941762145,
              5.485984284
            ],
            [
              9.947649351,
              5.056713989
            ],
            [
              11.001435948,
              5.15213284
            ],
            [
              11.839675286,
              5.914945915
            ],
            [
              12.725814015,
              6.866969087
            ],
            [
              13.506252634,
              8.052602789
            ],
            [
              13.726568566,
              8.691972122
            ],
            [
              14.107957129,
              9.784645326
            ],
            [
              14.203306718,
              10.312850947
            ],
            [
              13.870527261,
              11.166077243
            ],
            [
              13.420355181,
              11.687303922
            ],
            [
              12.342618889,
              11.734206272
            ],
            [
              11.360681378,
              11.874865362
            ],
            [
              10.16319661,
              11.663849766
            ],
            [
              9.085460318,
              10.81820941
            ],
            [
              8.390919152,
              10.135251372
            ],
            [
              7.911925244,
              7.698438608
            ],
            [
              7.911925244,
              7.698438608
            ],
            [
              7.995636236,
              7.091805323
            ]
          ]
        ]
      },
      "properties": {
        "name": "-2000 sd -1500",
        "layerId": 1,
        "beginTime": -2000,
        "endTime": -1500
      },
      "group_name": null
    },
    {
      "id": 2,
      "type": "Feature",
      "geometry": {
        "type": "Polygon",
        "coordinates": [
          [
            [
              16.601160452,
              10.102098488
            ],
            [
              16.008381798,
              10.806477795
            ],
            [
              15.094514708,
              11.242855829
            ],
            [
              13.88425829,
              11.581806143
            ],
            [
              13.019789421,
              11.024747752
            ],
            [
              12.466097287,
              9.867824093
            ],
            [
              12.584893311,
              9.039194666
            ],
            [
              13.545913249,
              8.088901471
            ],
            [
              15.265633138,
              6.232121216
            ],
            [
              16.681873046,
              4.116540487
            ],
            [
              18.226355835,
              2.771672834
            ],
            [
              22.125322404,
              1.339077461
            ],
            [
              25.06131948,
              1.467298998
            ],
            [
              25.447002225,
              2.912514573
            ],
            [
              24.391208531,
              4.852742173
            ],
            [
              21.643164513,
              7.528463124
            ],
            [
              18.810684695,
              9.229760688
            ],
            [
              18.810684695,
              9.229760688
            ],
            [
              16.833613037,
              9.937169742
            ]
          ]
        ]
      },
      "properties": {
        "name": "-1500 sd -1000",
        "layerId": 2,
        "beginTime": -1500,
        "endTime": -1000
      },
      "group_name": null
    },
    {
      "id": 3,
      "type": "Feature",
      "geometry": {
        "type": "Polygon",
        "coordinates": [
          [
            [
              27.816438853,
              -1.169425132
            ],
            [
              29.047376194,
              -1.068959633
            ],
            [
              30.50726059,
              -0.643435437
            ],
            [
              31.968248658,
              0.024907247
            ],
            [
              32.73623872,
              1.355963427
            ],
            [
              32.889836732,
              2.993106537
            ],
            [
              32.32664402,
              4.117306073
            ],
            [
              30.637065886,
              4.780888042
            ],
            [
              28.691491064,
              4.984942016
            ],
            [
              25.107537446,
              3.861929963
            ],
            [
              24.902740096,
              2.277078428
            ],
            [
              25.731305645,
              0.523275791
            ],
            [
              26.342059263,
              0.145197337
            ],
            [
              27.150727842,
              -0.767544652
            ]
          ]
        ]
      },
      "properties": {
        "name": "-1000 sd -500",
        "layerId": 3,
        "beginTime": -1000,
        "endTime": -500
      },
      "group_name": null
    },
    {
      "id": 4,
      "type": "Feature",
      "geometry": {
        "type": "Polygon",
        "coordinates": [
          [
            [
              25.62142073,
              -19.560179135
            ],
            [
              26.038108273,
              -21.414154126
            ],
            [
              26.975655244,
              -22.380700927
            ],
            [
              28.017374101,
              -23.913214725
            ],
            [
              29.4757805,
              -23.913214725
            ],
            [
              30.413327471,
              -20.831121165
            ],
            [
              30.413327471,
              -19.658309382
            ],
            [
              31.663390099,
              -17.28721157
            ],
            [
              31.767561985,
              -14.582942851
            ],
            [
              31.87173387,
              -11.641078258
            ],
            [
              30.621671242,
              -10.004033651
            ],
            [
              28.954921072,
              -7.739826617
            ],
            [
              28.538233529,
              -3.594238974
            ],
            [
              28.538233529,
              -1.721245747
            ],
            [
              27.288170901,
              -0.263097381
            ],
            [
              25.933936387,
              -0.471436758
            ],
            [
              23.850498674,
              -2.658097673
            ],
            [
              23.850498674,
              -5.048459827
            ],
            [
              23.850498674,
              -8.667768895
            ],
            [
              24.163014331,
              -12.659446895
            ],
            [
              24.163014331,
              -12.659446895
            ],
            [
              25.62142073,
              -19.560179135
            ]
          ]
        ]
      },
      "properties": {
        "name": "-500 sd 300",
        "layerId": 4,
        "beginTime": -500,
        "endTime": 300
      },
      "group_name": null
    },
    {
      "type": "Feature",
      "properties": {
        "layerId": 5,
        "name": "Khoisan 300 sd 9146",
        "beginTime": 300,
        "endTime": 9146
      },
      "geometry": {
        "type": "Polygon",
        "coordinates": [
          [
            [
              12.543920392010762,
              -13.422480565145179
            ],
            [
              13.031982138111317,
              -13.572194682590492
            ],
            [
              13.918565451151665,
              -13.835383280597227
            ],
            [
              14.706639507187589,
              -13.500365044551884
            ],
            [
              15.445458934721245,
              -13.404558571397331
            ],
            [
              16.92309778978978,
              -13.404558571397331
            ],
            [
              18.179090816596982,
              -13.236805491034389
            ],
            [
              19.311947272148615,
              -14.026606668165158
            ],
            [
              20.888095384220406,
              -15.004083404214128
            ],
            [
              21.553032869001925,
              -15.763913985323967
            ],
            [
              22.78439858155801,
              -17.15733307225571
            ],
            [
              23.670981894598413,
              -17.72121808964596
            ],
            [
              23.892627722876085,
              -17.53345042346298
            ],
            [
              25.3210119494411,
              -17.580410656067485
            ],
            [
              26.207595262481448,
              -17.932221832514173
            ],
            [
              26.823278118760754,
              -17.79158042015817
            ],
            [
              27.488215603540993,
              -17.063183812738814
            ],
            [
              28.374798916581398,
              -16.473683732009135
            ],
            [
              28.867345201603797,
              -16.63892755362555
            ],
            [
              29.187500286868385,
              -17.345488143254116
            ],
            [
              29.458400743630733,
              -18.16637574458305
            ],
            [
              29.6307919433886,
              -18.936839979325626
            ],
            [
              29.310636858124013,
              -19.657388536006422
            ],
            [
              29.250752403303323,
              -20.859963778065236
            ],
            [
              29.250752403303323,
              -21.687915924546175
            ],
            [
              29.213731249507447,
              -22.13442381747248
            ],
            [
              28.140117789428956,
              -22.852715697310146
            ],
            [
              27.32565240592109,
              -23.56723250414663
            ],
            [
              26.857334801877016,
              -23.87142944303544
            ],
            [
              26.820313648081225,
              -24.445664140807907
            ],
            [
              26.339038648735652,
              -24.614063103022914
            ],
            [
              25.871072312312634,
              -24.806423229738996
            ],
            [
              25.54681306901665,
              -25.540073417337567
            ],
            [
              25.330640240152604,
              -25.78363657059323
            ],
            [
              24.844251375208586,
              -25.83228941290311
            ],
            [
              24.357862510264596,
              -25.905231182385307
            ],
            [
              24.03360326696719,
              -25.686271016588037
            ],
            [
              23.71003633652336,
              -25.878833141143772
            ],
            [
              23.30757826777375,
              -25.999471133546024
            ],
            [
              23.424961871155944,
              -26.410130600880073
            ],
            [
              23.976936287126506,
              -26.96636583725104
            ],
            [
              23.75893816655301,
              -27.145572781982473
            ],
            [
              24.161396235303414,
              -27.33938980333923
            ],
            [
              24.077550804313944,
              -27.711162391766933
            ],
            [
              24.362625269678205,
              -27.859518478994524
            ],
            [
              24.765083338427814,
              -27.740849796097244
            ],
            [
              24.947462477404684,
              -27.89100450351151
            ],
            [
              24.91133256234619,
              -28.283085223344997
            ],
            [
              24.378812404532397,
              -29.5948199868283
            ],
            [
              24.93105553115413,
              -30.227361988596662
            ],
            [
              25.483298657775862,
              -30.584577106875415
            ],
            [
              25.515784662967604,
              -30.944163542473433
            ],
            [
              25.33499674874699,
              -31.19364922768186
            ],
            [
              24.641976410901577,
              -31.44247889281567
            ],
            [
              24.432273945193344,
              -31.725397198365933
            ],
            [
              24.020479251685657,
              -32.2110660948389
            ],
            [
              21.61515875879698,
              -33.066455947635234
            ],
            [
              20.116213129395135,
              -33.264575444765796
            ],
            [
              18.876469279139116,
              -32.952869533498856
            ],
            [
              18.362005603007418,
              -32.3340166259127
            ],
            [
              18.597544531184354,
              -31.868400703584037
            ],
            [
              18.16363921741012,
              -31.246574913544443
            ],
            [
              17.670564997212097,
              -31.094694979291994
            ],
            [
              17.433889371517097,
              -30.620627413712207
            ],
            [
              17.019707026550776,
              -29.665514743267664
            ],
            [
              16.743585463239896,
              -29.029423754264663
            ],
            [
              16.38857202469734,
              -28.614712206059913
            ],
            [
              15.801217391919863,
              -28.182080729517807
            ],
            [
              15.327866140529778,
              -27.41442856306552
            ],
            [
              14.95312973317931,
              -26.641404599027716
            ],
            [
              14.81506895152387,
              -25.756580050255522
            ],
            [
              14.7910751833125,
              -25.02188653588958
            ],
            [
              14.400886606557549,
              -24.07526090258567
            ],
            [
              14.42344893823224,
              -23.699222545431837
            ],
            [
              14.42344893823224,
              -23.011163517478636
            ],
            [
              14.467668887227575,
              -22.67862017773119
            ],
            [
              14.226232128484071,
              -22.102970059694357
            ],
            [
              13.832936181034057,
              -21.544976858319274
            ],
            [
              13.264637142500249,
              -20.675916265137047
            ],
            [
              12.766719558366901,
              -19.48247717799883
            ],
            [
              11.99752377485811,
              -18.419221746769807
            ],
            [
              11.741184910499783,
              -17.900346246440066
            ],
            [
              11.751705038698901,
              -16.57493175787846
            ],
            [
              11.73099244132112,
              -15.81910002150262
            ],
            [
              11.969187311165882,
              -15.564857217488424
            ],
            [
              12.29417918586475,
              -14.416913555095036
            ],
            [
              12.366673276687123,
              -13.980177788974217
            ],
            [
              12.490181224586593,
              -13.404558571397331
            ]
          ]
        ]
      },
      "id": 5
    }
  ]
}