{
  "type": "FeatureCollection",
  "name": "romanian",
  "features": [
    {
      "id": 1,
      "type": "Feature",
      "geometry": {
        "type": "Polygon",
        "coordinates": [
          [
            [
              28.043366498,
              41.919865532
            ],
            [
              28.021284202,
              42.029311459
            ],
            [
              27.859347365,
              42.182219715
            ],
            [
              27.771018182,
              42.269430247
            ],
            [
              27.793100478,
              42.35108069
            ],
            [
              27.72685359,
              42.372836252
            ],
            [
              27.682688998,
              42.4434898
            ],
            [
              27.60172058,
              42.454352513
            ],
            [
              27.46186604,
              42.465213343
            ],
            [
              27.488205684,
              42.492602182
            ],
            [
              27.517469835,
              42.55299237
            ],
            [
              27.587703796,
              42.55442952
            ],
            [
              27.646232098,
              42.547243438
            ],
            [
              27.642330211,
              42.588911195
            ],
            [
              27.646232098,
              42.634857105
            ],
            [
              27.700858513,
              42.647773286
            ],
            [
              27.730122664,
              42.659252084
            ],
            [
              27.720367947,
              42.700844966
            ],
            [
              27.804258512,
              42.705146088
            ],
            [
              27.903756625,
              42.696543545
            ],
            [
              27.887025122,
              42.767969577
            ],
            [
              27.900213844,
              42.847794301
            ],
            [
              27.900213844,
              42.927516002
            ],
            [
              27.877133581,
              43.045700547
            ],
            [
              27.929888468,
              43.098689078
            ],
            [
              27.949671551,
              43.170872328
            ],
            [
              28.051575728,
              43.258228657
            ],
            [
              28.076032258,
              43.378334338
            ],
            [
              28.173858376,
              43.400550076
            ],
            [
              28.351168214,
              43.400550076
            ],
            [
              28.473450861,
              43.369445762
            ],
            [
              28.54682045,
              43.467148432
            ],
            [
              28.614075906,
              43.53810589
            ],
            [
              28.571276979,
              43.600125248
            ],
            [
              28.559048715,
              43.679770582
            ],
            [
              28.614075906,
              43.860790782
            ],
            [
              28.669103097,
              44.02807633
            ],
            [
              28.669103097,
              44.229949978
            ],
            [
              28.589619376,
              44.273744248
            ],
            [
              28.766929215,
              44.422400823
            ],
            [
              29.054293436,
              44.709893116
            ],
            [
              29.21937501,
              44.80540812
            ],
            [
              29.604565349,
              44.831430264
            ],
            [
              29.635136011,
              44.926744318
            ],
            [
              29.779358472,
              45.473215306
            ],
            [
              29.636954341,
              45.467340891
            ],
            [
              29.7961119,
              45.631593077
            ],
            [
              30.290338002,
              45.900394032
            ],
            [
              30.583522979,
              46.196898629
            ],
            [
              30.751057251,
              46.405237866
            ],
            [
              30.893461382,
              46.549451526
            ],
            [
              31.270413494,
              46.635796281
            ],
            [
              31.546845044,
              46.618538335
            ],
            [
              31.722756029,
              46.635796281
            ],
            [
              31.881913588,
              46.635796281
            ],
            [
              31.924018322,
              46.960434032
            ],
            [
              31.728217635,
              47.28399117
            ],
            [
              29.968271354,
              47.842855393
            ],
            [
              29.285717088,
              48.141522707
            ],
            [
              28.340641951,
              48.333857292
            ],
            [
              27.553079336,
              48.542852521
            ],
            [
              26.818020896,
              48.508079686
            ],
            [
              26.371735414,
              48.264001101
            ],
            [
              26.109214542,
              48.194049307
            ],
            [
              25.531668625,
              48.124001884
            ],
            [
              24.717853923,
              48.159037551
            ],
            [
              23.431501653,
              48.750988329
            ],
            [
              22.670191125,
              49.044377794
            ],
            [
              20.455021413,
              49.453532112
            ],
            [
              19.431190014,
              49.538785607
            ],
            [
              18.17108983,
              49.368130075
            ],
            [
              18.092333569,
              49.299701451
            ],
            [
              17.409779303,
              48.86986559
            ],
            [
              17.619796,
              48.436305187
            ],
            [
              17.619796,
              48.069230808
            ],
            [
              17.961073133,
              47.770144113
            ],
            [
              18.512366963,
              47.664171157
            ],
            [
              19.063660793,
              47.752496921
            ],
            [
              20.061240105,
              47.823049774
            ],
            [
              20.691290197,
              47.646488041
            ],
            [
              20.66503811,
              47.255943813
            ],
            [
              20.612533936,
              46.73670141
            ],
            [
              20.822550633,
              46.248730702
            ],
            [
              21.321340289,
              45.554536208
            ],
            [
              21.662617422,
              45.037468881
            ],
            [
              21.452600725,
              44.963217226
            ],
            [
              21.741373683,
              44.721234787
            ],
            [
              22.476063274,
              44.391945155
            ],
            [
              22.900414968,
              44.09921807
            ],
            [
              22.900414968,
              43.92967451
            ],
            [
              23.214749556,
              43.440963877
            ],
            [
              24.487804638,
              43.005767433
            ],
            [
              25.980893932,
              42.4632032
            ],
            [
              25.980893932,
              42.4632032
            ],
            [
              28.043366498,
              41.919865532
            ]
          ]
        ]
      },
      "properties": {
        "name": "106 s/d 300",
        "beginTime": 106,
        "endTime": 300
      },
      "group_name": null
    },
    {
      "type": "Feature",
      "properties": {
        "name": "300 s/d 1600",
        "beginTime": 300,
        "endTime": 1600
      },
      "geometry": {
        "type": "Polygon",
        "coordinates": [
          [
            [
              26.747503249919475,
              45.135602016145896
            ],
            [
              27.11141749720204,
              45.493872575529
            ],
            [
              27.256983196114703,
              45.92587067393737
            ],
            [
              26.89306894883208,
              46.75492760990309
            ],
            [
              26.419980427365942,
              47.25127153026989
            ],
            [
              25.983283330627955,
              47.93841236318903
            ],
            [
              25.437411959705486,
              48.520215991249074
            ],
            [
              24.673192040413937,
              48.80863934291145
            ],
            [
              24.127320669491468,
              49.19063829732042
            ],
            [
              23.326709325471768,
              49.47521637924163
            ],
            [
              22.708055105092,
              49.852097044832334
            ],
            [
              22.05300945998502,
              49.852097044832334
            ],
            [
              21.798269486887847,
              49.56971029427223
            ],
            [
              21.288789540693557,
              49.59330524354084
            ],
            [
              20.415395347217583,
              49.64046091727704
            ],
            [
              19.360044030099772,
              49.92243731433399
            ],
            [
              18.413866987166557,
              49.85209704483219
            ],
            [
              17.68603849260319,
              49.5461039347131
            ],
            [
              17.10377569695254,
              49.16684917272971
            ],
            [
              18.013561315156693,
              48.568401191851166
            ],
            [
              18.55943268607922,
              48.27860160857912
            ],
            [
              18.70499838499188,
              47.9627862871358
            ],
            [
              17.904387040972182,
              47.669540229218484
            ],
            [
              18.52304126135101,
              47.399275773787764
            ],
            [
              19.323652605371592,
              47.522295932528124
            ],
            [
              21.070440992323313,
              47.96278628713503
            ],
            [
              22.12579230944013,
              48.133081945127884
            ],
            [
              22.85362080400347,
              47.865221609726746
            ],
            [
              23.253926476014215,
              47.27596770291021
            ],
            [
              23.981754970577526,
              47.152371618536364
            ],
            [
              24.745974889869018,
              46.555098384248964
            ],
            [
              24.054537820033858,
              46.30427322589327
            ],
            [
              23.36310075019867,
              46.7549276099021
            ],
            [
              22.635272255634447,
              47.22656383628495
            ],
            [
              21.798269486886653,
              46.85456535586161
            ],
            [
              21.834660911614776,
              46.279127220344805
            ],
            [
              21.834660911614776,
              45.79915900264817
            ],
            [
              21.216006691235975,
              45.41729098862308
            ],
            [
              21.143223841779644,
              44.98136409253405
            ],
            [
              21.50713808906133,
              44.25608624685634
            ],
            [
              21.616312363245783,
              43.67987085806837
            ],
            [
              22.016618035255647,
              43.41610734867393
            ],
            [
              22.344140857809123,
              43.837574850439694
            ],
            [
              22.671663680362627,
              44.41226558555039
            ],
            [
              23.03557792764522,
              44.800894006102595
            ],
            [
              23.799797846936713,
              44.6716400990521
            ],
            [
              25.364629110247847,
              44.72337633137016
            ],
            [
              26.529154701549174,
              44.878307670320766
            ],
            [
              26.529154701549174,
              44.878307670320766
            ],
            [
              26.747503249919475,
              45.135602016145896
            ]
          ]
        ]
      },
      "id": 2
    },
    {
      "type": "Feature",
      "properties": {
        "name": "1600 s/d 1850",
        "beginTime": 1600,
        "endTime": 1850
      },
      "geometry": {
        "type": "Polygon",
        "coordinates": [
          [
            [
              26.820286099374528,
              45.36617881871001
            ],
            [
              27.65728886812326,
              45.59581958493584
            ],
            [
              28.34872593795842,
              45.544869190065384
            ],
            [
              29.076554432521732,
              46.052293571316966
            ],
            [
              30.131905749638577,
              46.53006780703507
            ],
            [
              31.150865642028123,
              46.85456535586161
            ],
            [
              30.49581999692026,
              48.10878846632167
            ],
            [
              29.62242580344423,
              48.423707942170836
            ],
            [
              27.62089744339508,
              48.80863934291051
            ],
            [
              26.347197577908332,
              48.80863934291051
            ],
            [
              24.92793201350983,
              49.42790093000136
            ],
            [
              23.61784072329587,
              49.68757096813104
            ],
            [
              22.671663680362627,
              49.89900194680479
            ],
            [
              22.23496658362464,
              49.42790093000136
            ],
            [
              21.798269486886653,
              48.88048735785338
            ],
            [
              21.761878062158445,
              48.423707942170836
            ],
            [
              22.526097981449965,
              47.840801694715424
            ],
            [
              22.453315131993634,
              47.39927577378697
            ],
            [
              21.871052336342984,
              46.90431502948323
            ],
            [
              21.57992093851766,
              46.052293571316966
            ],
            [
              21.834660911614776,
              45.69758172236749
            ],
            [
              23.836189271664864,
              44.360252021835834
            ],
            [
              25.874109056442194,
              44.51615405643852
            ],
            [
              25.910500481170345,
              44.54209728622419
            ],
            [
              26.820286099374528,
              45.36617881871001
            ]
          ]
        ]
      },
      "id": 3
    },
    {
      "type": "Feature",
      "properties": {
        "name": "1850 s/d now",
        "beginTime": 1850,
        "endTime": 9146
      },
      "geometry": {
        "type": "Polygon",
        "coordinates": [
          [
            [
              20.20841064922476,
              46.16379932673436
            ],
            [
              20.542033555802902,
              46.13660826782109
            ],
            [
              20.856031585523453,
              46.299553141721276
            ],
            [
              21.189654492101653,
              46.3131100558856
            ],
            [
              21.346653506962895,
              46.58354338405573
            ],
            [
              21.68027641354101,
              47.10702822958976
            ],
            [
              22.22977296555206,
              47.78389416395902
            ],
            [
              22.936268532423384,
              48.00758176430875
            ],
            [
              23.32876606957413,
              48.11251222627561
            ],
            [
              23.799763114155013,
              48.00758176430875
            ],
            [
              24.525883557883844,
              47.96817769530912
            ],
            [
              24.938005971892153,
              47.810260514011276
            ],
            [
              25.271628878470267,
              47.92874354003041
            ],
            [
              25.762250799909708,
              48.00758176430875
            ],
            [
              26.272497598205604,
              48.06007372959053
            ],
            [
              26.62574538164131,
              48.243374612748084
            ],
            [
              27.1163673030797,
              48.09940761420938
            ],
            [
              27.410740455942744,
              47.585719958437465
            ],
            [
              27.84248774680856,
              47.173772832171665
            ],
            [
              28.136860899671575,
              46.89288232031879
            ],
            [
              28.21536040710174,
              46.58354338405573
            ],
            [
              28.1761106533867,
              46.10940377571319
            ],
            [
              28.195735530244264,
              45.71342880054138
            ],
            [
              28.156485776529138,
              45.53500559320224
            ],
            [
              28.391984298819608,
              45.28702052615432
            ],
            [
              28.66673257482512,
              45.23176486346401
            ],
            [
              29.157354496263537,
              45.424924431234956
            ],
            [
              29.49097740284168,
              45.45246488465972
            ],
            [
              29.647976417701955,
              45.28702052615432
            ],
            [
              29.647976417701955,
              44.87129230821566
            ],
            [
              29.11810474254844,
              44.71810074292125
            ],
            [
              28.725607205397694,
              44.3824531138612
            ],
            [
              28.66749931867193,
              43.88599807361888
            ],
            [
              28.460990844434377,
              43.67299736422103
            ],
            [
              28.018472685354,
              43.822177537389166
            ],
            [
              27.900467842932557,
              43.97098587152749
            ],
            [
              27.48745089445751,
              44.01343423078703
            ],
            [
              27.04493273537713,
              44.11942229219201
            ],
            [
              26.18939762782165,
              44.055852228115555
            ],
            [
              25.74687946874127,
              43.736977250263095
            ],
            [
              25.510869783898357,
              43.56621248763449
            ],
            [
              25.009349203607286,
              43.71565820885277
            ],
            [
              24.566831044526907,
              43.736977250263095
            ],
            [
              23.593291094548505,
              43.75828870406667
            ],
            [
              22.94426446123063,
              43.779592570016575
            ],
            [
              22.88526204001988,
              44.09823986199811
            ],
            [
              22.354240249123393,
              44.45730863907741
            ],
            [
              22.70825477638772,
              44.60452265998157
            ],
            [
              22.472245091544835,
              44.70944770608807
            ],
            [
              22.00022572185904,
              44.499407757500535
            ],
            [
              21.705213615805462,
              44.62552285801624
            ],
            [
              21.380700299146525,
              44.897834326065436
            ],
            [
              21.410201509751857,
              45.18965739707991
            ],
            [
              21.05618698248759,
              45.25199724234045
            ],
            [
              20.761174876433984,
              45.45930308051393
            ],
            [
              20.672671244617874,
              45.76883799889808
            ],
            [
              20.554666402196432,
              45.87163667084047
            ],
            [
              20.554666402196432,
              45.87163667084047
            ],
            [
              20.20841064922476,
              46.16379932673436
            ]
          ]
        ]
      },
      "id": 4
    }
  ]
}